COMP_SELLER_ID,SELLER DOMAIN,SELLER NAME,CITY,STATE,ZIP,ADDRESS,Business Name,COUNTRY
A28QMGGYV8BT1P,https://www.amazon.com/sp?_encoding=UTF8&asin=&isAmazonFulfilled=&isCBA=&marketplaceID=ATVPDKIKX0DER&orderID=&protocol=current&seller=A28QMGGYV8BT1P&sshmPath=,1PerfectChoice Inc.,Walnut,CA,91789,21908 Valley Valley,1PerfectChoice Inc,USA
A31ZJYFFBZJHQC,https://www.amazon.com/sp?_encoding=UTF8&asin=&isAmazonFulfilled=&isCBA=&marketplaceID=ATVPDKIKX0DER&orderID=&protocol=current&seller=A31ZJYFFBZJHQC&sshmPath=,A Palace,Carnford,NJ,07016,140 bryant ave,i&j digital inc,USA
A10HLORM3B3SKO,https://www.amazon.com/sp?_encoding=UTF8&asin=&isAmazonFulfilled=&isCBA=&marketplaceID=ATVPDKIKX0DER&orderID=&protocol=current&seller=A10HLORM3B3SKO&sshmPath=,A1SUPPLY,Brooklyn,NY,11223,344 Ave U #230229,AJSRE NY INC,USA
A1SXIFUPRRVRBG,https://www.amazon.com/sp?_encoding=UTF8&asin=&isAmazonFulfilled=&isCBA=&marketplaceID=ATVPDKIKX0DER&orderID=&protocol=current&seller=A1SXIFUPRRVRBG&sshmPath=,Acevio U.S,Vacaville,CA,95687,137 Asbury Dr,ECOVISIONFTR LLC,USA
A2SXPK48ICRCFT,https://www.amazon.com/sp?_encoding=UTF8&asin=&isAmazonFulfilled=&isCBA=&marketplaceID=ATVPDKIKX0DER&orderID=&protocol=current&seller=A2SXPK48ICRCFT&sshmPath=,Advanced Furniture,City of Industry,CA,91748,719 S Nogales St,FAIRWAY FURNITURE LLC,USA
A2SRQYE0E998VL,https://www.amazon.com/sp?_encoding=UTF8&asin=&isAmazonFulfilled=&isCBA=&marketplaceID=ATVPDKIKX0DER&orderID=&protocol=current&seller=A2SRQYE0E998VL&sshmPath=,Aetna Stores,Los Angeles,CA,90038,708 N Manhattan Pl,"Aetna Furniture, Inc.",USA
ALAQHED7P69VI,https://www.amazon.com/sp?_encoding=UTF8&asin=&isAmazonFulfilled=&isCBA=&marketplaceID=ATVPDKIKX0DER&orderID=&protocol=current&seller=ALAQHED7P69VI&sshmPath=,All Access Shop,Cheyenne,WY,82001,1603 Capitol Ave. Suite 314,C&amp; M Trade Inc.,USA
A12VI0UHM6P0R0,https://www.amazon.com/sp?_encoding=UTF8&asin=&isAmazonFulfilled=&isCBA=&marketplaceID=ATVPDKIKX0DER&orderID=&protocol=current&seller=A12VI0UHM6P0R0&sshmPath=,ALL TOOLS SUPPLY,Prescott,WI,54021,N5898 1115TH ST,AES ECOM LLC,USA
ATYWAHFUXF3Z1,https://www.amazon.com/sp?_encoding=UTF8&asin=&isAmazonFulfilled=&isCBA=&marketplaceID=ATVPDKIKX0DER&orderID=&protocol=current&seller=ATYWAHFUXF3Z1&sshmPath=,Alliance(Supply),Tampa,FL,33634,"7028 West Waters Ave, Suite: 345","Alliance Groups International, LLC",USA
ADG9Y6APUFWLB,https://www.amazon.com/sp?_encoding=UTF8&asin=&isAmazonFulfilled=&isCBA=&marketplaceID=ATVPDKIKX0DER&orderID=&protocol=current&seller=ADG9Y6APUFWLB&sshmPath=,Alma Lazer,Seattle,WA,98122-6852,"1305 e fir st, ste 101",Armara Josephine Nhep,USA
A23J4ZXNUFHDT,https://www.amazon.com/sp?_encoding=UTF8&asin=&isAmazonFulfilled=&isCBA=&marketplaceID=ATVPDKIKX0DER&orderID=&protocol=current&seller=A23J4ZXNUFHDT&sshmPath=,Alpina Products Surplus,Escondido,CA,92025,2559 Summit Dr,Dominic Jabro,USA
A2R2RITDJNW1Q6,https://www.amazon.com/sp?_encoding=UTF8&asin=&isAmazonFulfilled=&isCBA=&marketplaceID=ATVPDKIKX0DER&orderID=&protocol=current&seller=A2R2RITDJNW1Q6,AMAZON,-,-,-,-,"AMAZON,INC",USA
A3UEBRS7IC4FA6,https://www.amazon.com/sp?_encoding=UTF8&asin=&isAmazonFulfilled=&isCBA=&marketplaceID=ATVPDKIKX0DER&orderID=&protocol=current&seller=A3UEBRS7IC4FA6&sshmPath=,"AMS Fireplace, Inc",Carlsbad,CA,92010,"2864 Whiptail Loop East, Suite 100",AMS Fireplace Inc.,USA
A2NW7JJ5QA3ECR,https://www.amazon.com/sp?_encoding=UTF8&asin=&isAmazonFulfilled=&isCBA=&marketplaceID=ATVPDKIKX0DER&orderID=&protocol=current&seller=A2NW7JJ5QA3ECR,Amzgold,Windermere,FL,34786-5544,11349 Center Lake Dr Unit 4301,Ingrid Antonio Evangelista,USA
A3JBPMAENMPDB2,https://www.amazon.com/sp?_encoding=UTF8&asin=&isAmazonFulfilled=&isCBA=&marketplaceID=ATVPDKIKX0DER&orderID=&protocol=current&seller=A3JBPMAENMPDB2&sshmPath=,AnorTrek&Onsaler Appliances,Ziyoumaoyishiyanqu,Shanghai,200131,Meishenglu 27 Hao 502-16 Shi,"Shanghai Hanyi Dianzishangwu Co., Ltd",China
A1FCEOV950ARAM,https://www.amazon.com/sp?_encoding=UTF8&asin=&isAmazonFulfilled=&isCBA=&marketplaceID=ATVPDKIKX0DER&orderID=&protocol=current&seller=A1FCEOV950ARAM&sshmPath=,Appliance Giant,Booklyn,NY,11219,4502 13 Ave Suite 1,K&B Appliances Inc,USA
A1PUHO6D4MM5FC,https://www.amazon.com/sp?_encoding=UTF8&asin=&isAmazonFulfilled=&isCBA=&marketplaceID=ATVPDKIKX0DER&orderID=&protocol=current&seller=A1PUHO6D4MM5FC&sshmPath=,Aventis Systems,Marietta,GA,30062,"189 Cobb Parkway North, Suite B7","Aventis Systems, Inc.",USA
A3ESLQZ1QDNL3G,https://www.amazon.com/sp?_encoding=UTF8&asin=&isAmazonFulfilled=&isCBA=&marketplaceID=ATVPDKIKX0DER&orderID=&protocol=current&seller=A3ESLQZ1QDNL3G&sshmPath=,B&KSUPPLY,LAKE ELMO,MN,55042,4863 OLSON LAKE TR,Bruce Ketzner,USA
ADVWKL9PG44RR,https://www.amazon.com/sp?_encoding=UTF8&asin=&isAmazonFulfilled=&isCBA=&marketplaceID=ATVPDKIKX0DER&orderID=&protocol=current&seller=ADVWKL9PG44RR&sshmPath=,Batoni Super Deals (Proudly Ships from USA),Houston,TX,77036,"9777 Harwin Dr, Suite 402","IMADUDDIN CONSULTING GROUP, INC",USA
A30E2M3SJOI20N,https://www.amazon.com/sp?_encoding=UTF8&asin=&isAmazonFulfilled=&isCBA=&marketplaceID=ATVPDKIKX0DER&orderID=&protocol=current&seller=A30E2M3SJOI20N&sshmPath=,BBQ Island Inc,Tempe,AZ,85284,"8980 S McKemy Street, Ste 102",Arizona Outdoor products LLC,USA
A72NJ1DL82NE2,https://www.amazon.com/sp?_encoding=UTF8&asin=&isAmazonFulfilled=&isCBA=&marketplaceID=ATVPDKIKX0DER&orderID=&protocol=current&seller=A72NJ1DL82NE2&sshmPath=,BBQGuys,Baton,LA,70815,8151 Airline Hwy,"ShoppersChoice.com, LLC",USA
A13BNE3P7C8THK,https://www.amazon.com/sp?_encoding=UTF8&asin=&isAmazonFulfilled=&isCBA=&marketplaceID=ATVPDKIKX0DER&orderID=&protocol=current&seller=A13BNE3P7C8THK&sshmPath=,Beach Camera Same Day Shipping,EDISON,NJ,08817,80 CARTER DR,Beach Trading Company Inc,USA
A2R0FX412W1BDT,https://www.amazon.com/sp?_encoding=UTF8&asin=&isAmazonFulfilled=&isCBA=&marketplaceID=ATVPDKIKX0DER&orderID=&protocol=current&seller=A2R0FX412W1BDT&sshmPath=,BeachAudio,REDONDO BEACH,CA,90278,"2001 Artesia Blvd, no 104",Beach Audio Inc,USA
A2393ZJQLDRI0I,https://www.amazon.com/sp?_encoding=UTF8&asin=&isAmazonFulfilled=&isCBA=&marketplaceID=ATVPDKIKX0DER&orderID=&protocol=current&seller=A2393ZJQLDRI0I&sshmPath=,BestNest Inc,Cincinnati,OH,45245,4000 McMann Rd,BestNest Inc,USA
A3H8D7KGFG358U,https://www.amazon.com/sp?_encoding=UTF8&asin=&isAmazonFulfilled=&isCBA=&marketplaceID=ATVPDKIKX0DER&orderID=&protocol=current&seller=A3H8D7KGFG358U&sshmPath=,Bibbinsselfe,McDonough,GA,30253-4839,1039 CROWN CORNERS DR,Bibbins & Selfe LLC,USA
A2G88111572J8M,https://www.amazon.com/sp?_encoding=UTF8&asin=&isAmazonFulfilled=&isCBA=&marketplaceID=ATVPDKIKX0DER&orderID=&protocol=current&seller=A2G88111572J8M&sshmPath=,BisonOffice,North Riverside,IL,60546,7301 W 25TH ST STE 114,BisonOffice LLC,USA
A2OKELEBPXWS7O,https://www.amazon.com/sp?_encoding=UTF8&asin=&isAmazonFulfilled=&isCBA=&marketplaceID=ATVPDKIKX0DER&orderID=&protocol=current&seller=A2OKELEBPXWS7O&sshmPath=,Blue Forest Market,Morehead City,NC,28557-8481,137 Industrial Dr,Six Cooks LLC,USA
A17IZ160SE6L2K,https://www.amazon.com/sp?_encoding=UTF8&asin=&isAmazonFulfilled=&isCBA=&marketplaceID=ATVPDKIKX0DER&orderID=&protocol=current&seller=A17IZ160SE6L2K&sshmPath=,Boom Inc,Scunthorpe,North Lincolnshire,DN17 1RQ,17 Whitfield Road,Robertsons E and A Ltd,USA
AUVCC2VQE352X,https://www.amazon.com/sp?_encoding=UTF8&asin=&isAmazonFulfilled=&isCBA=&marketplaceID=ATVPDKIKX0DER&orderID=&protocol=current&seller=AUVCC2VQE352X&sshmPath=,Bracetti Business LLC,Spanish Fork,UT,84660-5684,287 N 1280 E,Michael-Anthony Bracetti,USA
ACASB5S2TQGCW,https://www.amazon.com/sp?_encoding=UTF8&asin=&isAmazonFulfilled=&isCBA=&marketplaceID=ATVPDKIKX0DER&orderID=&protocol=current&seller=ACASB5S2TQGCW&sshmPath=,BRANDED WHOLESALER,Brooklyn,NY,11223,1841 Ocean Parkway,Moses Alhaki,USA
A10CBDBCOPZPH,https://www.amazon.com/sp?_encoding=UTF8&asin=&isAmazonFulfilled=&isCBA=&marketplaceID=ATVPDKIKX0DER&orderID=&protocol=current&seller=A10CBDBCOPZPH,Brandster Inc,Stuart,FL,34997,2850 SE Market Place Suite 1,Brandster Inc,USA
AQZ7TLRUCWQ56,https://www.amazon.com/sp?_encoding=UTF8&asin=&isAmazonFulfilled=&isCBA=&marketplaceID=ATVPDKIKX0DER&orderID=&protocol=current&seller=AQZ7TLRUCWQ56&sshmPath=,Brothers Supply Co.,Charlottesville,VA,22902,435 Merchant Walk Sq. STE 300 - 518,"SUPPLY BROTHERS, INC.",USA
AYX4QZIGCPIZG,https://www.amazon.com/sp?_encoding=UTF8&asin=&isAmazonFulfilled=&isCBA=&marketplaceID=ATVPDKIKX0DER&orderID=&protocol=current&seller=AYX4QZIGCPIZG&sshmPath=,Buildcom,Chico,CA,95928,402 Otterson Dr Ste 100,Buildcom,USA
A3TTJ1YLK39CXF,https://www.amazon.com/sp?_encoding=UTF8&asin=&isAmazonFulfilled=&isCBA=&marketplaceID=ATVPDKIKX0DER&orderID=&protocol=current&seller=A3TTJ1YLK39CXF&sshmPath=,Bumpbeat,Hong Kong,HK,00852,"6A, Wing Wong Building, 557-559 Nathan Road",Ann Wong,Hong Kong
A1H4RURPX3IPDF,https://www.amazon.com/sp?_encoding=UTF8&asin=&isAmazonFulfilled=&isCBA=&marketplaceID=ATVPDKIKX0DER&orderID=&protocol=current&seller=A1H4RURPX3IPDF&sshmPath=,BunnyBerry,Sherman Oaks,CA,91403,15030 Ventura Blvd. Suite 181-A,"Melody Press, LLC",USA
A3G4VHYTFI2H1X,https://www.amazon.com/sp?_encoding=UTF8&asin=&isAmazonFulfilled=&isCBA=&marketplaceID=ATVPDKIKX0DER&orderID=&protocol=current&seller=A3G4VHYTFI2H1X&sshmPath=,BWNY,Brooklyn,NY,11210,1623 Flatbush Ave Suite 354,Bargain World NY INC,USA
A3K2NJ6IMMYYKL,https://www.amazon.com/sp?_encoding=UTF8&asin=&isAmazonFulfilled=&isCBA=&marketplaceID=ATVPDKIKX0DER&orderID=&protocol=current&seller=A3K2NJ6IMMYYKL&sshmPath=,Campus Guru,Brooklyn,NY,11223,"1002 Quentin Road, Suite 3088",campus guru llc,USA
AEWXVAMJPJU0U,https://www.amazon.com/sp?_encoding=UTF8&asin=&isAmazonFulfilled=&isCBA=&marketplaceID=ATVPDKIKX0DER&orderID=&protocol=current&seller=AEWXVAMJPJU0U&sshmPath=,CasStore,Dunwoody,GA,30360-1461,5280 WINTERS CHAPEL RD,"CasStore LLC, Bryan Castellanos SOLE MBR",USA
A3IRYX17GR1Q0K,https://www.amazon.com/sp?_encoding=UTF8&asin=&isAmazonFulfilled=&isCBA=&marketplaceID=ATVPDKIKX0DER&orderID=&protocol=current&seller=A3IRYX17GR1Q0K&sshmPath=,Circuit City,Brooklyn,NY,11230-6310,1635 McDonald Ave,"Circuit City Corporation,Inc.",USA
A2RP4VCLOBWX64,https://www.amazon.com/sp?_encoding=UTF8&asin=&isAmazonFulfilled=&isCBA=&marketplaceID=ATVPDKIKX0DER&orderID=&protocol=current&seller=A2RP4VCLOBWX64&sshmPath=,clickhere2shop,Pleasant Grove,UT,84062,881 West State Street #140-321,"clickhere2shop, LLC",USA
A25JHS8NDB2Q0A,https://www.amazon.com/sp?_encoding=UTF8&asin=&isAmazonFulfilled=&isCBA=&marketplaceID=ATVPDKIKX0DER&orderID=&protocol=current&seller=A25JHS8NDB2Q0A&sshmPath=,craZdeal,Bayonne,NJ,07002,555 Broadway,crazdeal inc,USA
A31DK33XTP2XEH,https://www.amazon.com/sp?_encoding=UTF8&asin=&isAmazonFulfilled=&isCBA=&marketplaceID=ATVPDKIKX0DER&orderID=&protocol=current&seller=A31DK33XTP2XEH&sshmPath=,CrownKit,City Of Industry,CA,91744,"15757 Valley Blvd, Ste B3",Crown Kit,USA
A1QFM750CLWIW0,https://www.amazon.com/sp?_encoding=UTF8&asin=&isAmazonFulfilled=&isCBA=&marketplaceID=ATVPDKIKX0DER&orderID=&protocol=current&seller=A1QFM750CLWIW0&sshmPath=,Cymax,Reston,VA,20191,"12020 Sunrise Valley Drive, Suite 100",Cymax Stores USA LLC.,USA
A37B0HOQI0WSHO,https://www.amazon.com/sp?_encoding=UTF8&asin=&isAmazonFulfilled=&isCBA=&marketplaceID=ATVPDKIKX0DER&orderID=&protocol=current&seller=A37B0HOQI0WSHO&sshmPath=,Daily Savings Store,White Plains,NY,10601,170 Martine Ave Unit 8373,Daily super deals inc,USA
A3UJQ2NI90PCNR,https://www.amazon.com/sp?_encoding=UTF8&asin=&isAmazonFulfilled=&isCBA=&marketplaceID=ATVPDKIKX0DER&orderID=&protocol=current&seller=A3UJQ2NI90PCNR&sshmPath=,DealBeds,Orlando,FL,32837,2501 Investors Row,US Mattress Depot,USA
A2SMIOPIX6968Y,https://www.amazon.com/sp?_encoding=UTF8&asin=&isAmazonFulfilled=&isCBA=&marketplaceID=ATVPDKIKX0DER&orderID=&protocol=current&seller=A2SMIOPIX6968Y&sshmPath=,DigitalEtc,Brooklyn,NY,11232,149 47th street,Digital Distributors Inc,USA
A14H2Z7AN4QY2D,https://www.amazon.com/sp?_encoding=UTF8&asin=&isAmazonFulfilled=&isCBA=&marketplaceID=ATVPDKIKX0DER&orderID=&protocol=current&seller=A14H2Z7AN4QY2D&sshmPath=,DirectPrime,DEAL,NJ,07723,7 Wykoff St Ste C,Arsim NJ LLC,USA
A23BMCAPM3T0PI,https://www.amazon.com/sp?_encoding=UTF8&asin=&isAmazonFulfilled=&isCBA=&marketplaceID=ATVPDKIKX0DER&orderID=&protocol=current&seller=A23BMCAPM3T0PI,EfurnitureNY,Brooklyn,NY,11232,718 3rd Ave,,
ASH1H6YCFH4EF,https://www.amazon.com/sp?_encoding=UTF8&asin=&isAmazonFulfilled=&isCBA=&marketplaceID=ATVPDKIKX0DER&orderID=&protocol=current&seller=ASH1H6YCFH4EF&sshmPath=,Electronic Express,Nashville,TN,37205,418 Harding Industrial Dr.,"Electronic Express, Inc.",USA
A3U04P55V99AN8,https://www.amazon.com/sp?_encoding=UTF8&asin=&isAmazonFulfilled=&isCBA=&marketplaceID=ATVPDKIKX0DER&orderID=&protocol=current&seller=A3U04P55V99AN8&sshmPath=,Elgy Home Goods LLC,queens village,NY,11427,"86-21,232nd street",ELGY HOME GOODS LLC,USA
AYXA1LMFVPVVD,https://www.amazon.com/sp?_encoding=UTF8&asin=&isAmazonFulfilled=&isCBA=&marketplaceID=ATVPDKIKX0DER&orderID=&protocol=current&seller=AYXA1LMFVPVVD&sshmPath=,Emerysshoppingcenter,BRONX,NY,10467-7052,669 ARNOW AVE APT 6C,Melanie Oliveras,USA
A2SFBE706RTDX5,https://www.amazon.com/sp?_encoding=UTF8&asin=&isAmazonFulfilled=&isCBA=&marketplaceID=ATVPDKIKX0DER&orderID=&protocol=current&seller=A2SFBE706RTDX5&sshmPath=,Ephesus Home Goods,GARLAND,TX,75041,"2525 S SHILOH RD, STE 200",Vesta Home Goods Inc,USA
A2I9WMRFFGTW5A,https://www.amazon.com/sp?_encoding=UTF8&asin=&isAmazonFulfilled=&isCBA=&marketplaceID=ATVPDKIKX0DER&orderID=&protocol=current&seller=A2I9WMRFFGTW5A&sshmPath=,e-ShopDirect,Anaheim,CA,92806,1080 North Kraemer Place Ste #B,Tulysa Innovation Inc,USA
A3D3JPOZ4ATOCB,https://www.amazon.com/sp?_encoding=UTF8&asin=&isAmazonFulfilled=&isCBA=&marketplaceID=ATVPDKIKX0DER&orderID=&protocol=current&seller=A3D3JPOZ4ATOCB&sshmPath=,Everything 4 the home,New York,NY,10018,po box 3579,everything 4 the home inc,USA
A3EQJ16CEAAUOF,https://www.amazon.com/sp?_encoding=UTF8&asin=&isAmazonFulfilled=&isCBA=&marketplaceID=ATVPDKIKX0DER&orderID=&protocol=current&seller=A3EQJ16CEAAUOF&sshmPath=,Factory Hardware Store,Wilmington,NC,28412,"3516 S. College Rd, Factory Hardware Store","Wrigglesworth Enterprises, Inc.",USA
A2JT4XY1RD2N34,https://www.amazon.com/sp?_encoding=UTF8&asin=&isAmazonFulfilled=&isCBA=&marketplaceID=ATVPDKIKX0DER&orderID=&protocol=current&seller=A2JT4XY1RD2N34&sshmPath=,Fast.Tech.For.Less.,BARDSTOWN,KY,40004,105 BALLARD SPRINGS DRIVE,Joseph Eric Taylor,USA
A4CNSPXWOC6X9,https://www.amazon.com/sp?_encoding=UTF8&asin=&isAmazonFulfilled=&isCBA=&marketplaceID=ATVPDKIKX0DER&orderID=&protocol=current&seller=A4CNSPXWOC6X9&sshmPath=,Faucets and More,Brooklyn,NY,11204,"5318A 16th Ave, Suite 106",Faucets and More Inc.,USA
A2LW3GKK44H7UQ,https://www.amazon.com/sp?_encoding=UTF8&asin=&isAmazonFulfilled=&isCBA=&marketplaceID=ATVPDKIKX0DER&orderID=&protocol=current&seller=A2LW3GKK44H7UQ&sshmPath=,FCF INTERNET VENTURES,Hermitage,TN,37076,1511 Arbor Lake Blvd,FCF INTERNET VENTURES,USA
A17S2W738MXJZT,https://www.amazon.com/sp?_encoding=UTF8&asin=&isAmazonFulfilled=&isCBA=&marketplaceID=ATVPDKIKX0DER&orderID=&protocol=current&seller=A17S2W738MXJZT&sshmPath=,FJI INC,Demorest,GA,30535,677 Double Bridge Connector,Fortsons Janitorial Inc,USA
A3GFQTSFWG6X0G,https://www.amazon.com/sp?_encoding=UTF8&asin=&isAmazonFulfilled=&isCBA=&marketplaceID=ATVPDKIKX0DER&orderID=&protocol=current&seller=A3GFQTSFWG6X0G&sshmPath=,Fleepdeals,SHERWOOD,OR,97140-6218,"16100 SW CENTURY DR APT 41, BUILDING F",Energy Solutions Supplemets LLC,USA
A35QBDN27RXW9M,https://www.amazon.com/sp?_encoding=UTF8&asin=&isAmazonFulfilled=&isCBA=&marketplaceID=ATVPDKIKX0DER&orderID=&protocol=current&seller=A35QBDN27RXW9M&sshmPath=,Frontier Appliances,CHINO,CA,91710-7009,13831 OAKS AVE,Walid Elsaleh,USA
APT9Z9ST8TMDM,https://www.amazon.com/sp?_encoding=UTF8&asin=&isAmazonFulfilled=&isCBA=&marketplaceID=ATVPDKIKX0DER&orderID=&protocol=current&seller=APT9Z9ST8TMDM&sshmPath=,GIARZELI BROS,Las Vegas,NV,89117-2100,1890 Del Font Ct,GIARZELI LLC,USA
AKL9Y8SSA2FTX,https://www.amazon.com/sp?_encoding=UTF8&asin=&isAmazonFulfilled=&isCBA=&marketplaceID=ATVPDKIKX0DER&orderID=&protocol=current&seller=AKL9Y8SSA2FTX&sshmPath=,Gochnauer's Home Appliance Center,EAST PETERSBURG,PA,17520,5939 MAIN ST.,Gochnauer's East Petersburg Inc.,USA
A2T4M7FTS94ZOX,https://www.amazon.com/sp?_encoding=UTF8&asin=&isAmazonFulfilled=&isCBA=&marketplaceID=ATVPDKIKX0DER&orderID=&protocol=current&seller=A2T4M7FTS94ZOX&sshmPath=,Greenlight Enterprises,bayonne,NJ,07002,301 stanley ave,GOLD standard enterprises llc,USA
A38TATSKWOEUDJ,https://www.amazon.com/sp?_encoding=UTF8&asin=&isAmazonFulfilled=&isCBA=&marketplaceID=ATVPDKIKX0DER&orderID=&protocol=current&seller=A38TATSKWOEUDJ&sshmPath=,GROWEBEE LLC,ORLANDO,FL,32819,6236 KINGSPOINTE PKWY SUITE 1,GROWEBEE LLC,USA
A3MF73XCL1XLS0,https://www.amazon.com/sp?_encoding=UTF8&asin=&isAmazonFulfilled=&isCBA=&marketplaceID=ATVPDKIKX0DER&orderID=&protocol=current&seller=A3MF73XCL1XLS0&sshmPath=,GwG Outlet,Sunrise,FL,33351,"10501 NW 50th Street, Suite 102",GwG Outlet LLC,USA
A2DB5OMOSIF4AG,https://www.amazon.com/sp?_encoding=UTF8&asin=&isAmazonFulfilled=&isCBA=&marketplaceID=ATVPDKIKX0DER&orderID=&protocol=current&seller=A2DB5OMOSIF4AG&sshmPath=,H2 Brands Group,Cranbury,NJ,08512,324A Half Acre Road,"Nova Wildcat Shur-line Holdings, Inc.",USA
ASQLZU02M583Y,https://www.amazon.com/sp?_encoding=UTF8&asin=&isAmazonFulfilled=&isCBA=&marketplaceID=ATVPDKIKX0DER&orderID=&protocol=current&seller=ASQLZU02M583Y&sshmPath=,Hardware By Design,APPLETON,WI,54913-7916,1778 N CASALOMA DR,"Lionel HBD, LLC",USA
A2CGQD559YYO9C,https://www.amazon.com/sp?_encoding=UTF8&asin=&isAmazonFulfilled=&isCBA=&marketplaceID=ATVPDKIKX0DER&orderID=&protocol=current&seller=A2CGQD559YYO9C&sshmPath=,Hauslane,South San Francisco,CA,94080,267 Wattis Way,"Chef Kitch, Inc.",USA
A2FXBGBJBTRRPH,https://www.amazon.com/sp?_encoding=UTF8&asin=&isAmazonFulfilled=&isCBA=&marketplaceID=ATVPDKIKX0DER&orderID=&protocol=current&seller=A2FXBGBJBTRRPH&sshmPath=,Home Furniture USA,North Brunswick,NJ,08902,P.O. BOX 7564,Home Elegance Furniture,USA
A15SLCCJ9EEA8I,https://www.amazon.com/sp?_encoding=UTF8&asin=&isAmazonFulfilled=&isCBA=&marketplaceID=ATVPDKIKX0DER&orderID=&protocol=current&seller=A15SLCCJ9EEA8I&sshmPath=,ICB.,Grand Junction,CO,81501,2845 Chipeta Avenue,Capital Affiliated LLC,USA
ABJ9QMWVBLKDO,https://www.amazon.com/sp?_encoding=UTF8&asin=&isAmazonFulfilled=&isCBA=&marketplaceID=ATVPDKIKX0DER&orderID=&protocol=current&seller=ABJ9QMWVBLKDO&sshmPath=,Infiniti-MC,Las Vegas,NV,89134,"1930 Village Center Circle, 3-417",Infiniti Management Incorporated,USA
A27TMMFBOTLMEM,https://www.amazon.com/sp?_encoding=UTF8&asin=&isAmazonFulfilled=&isCBA=&marketplaceID=ATVPDKIKX0DER&orderID=&protocol=current&seller=A27TMMFBOTLMEM&sshmPath=,Interstate Appliance LLC,Thornton,CO,80260,321 W 84th Ave.,A & A Quality Appliance Inc,USA
A284PRV19Y1MTF,https://www.amazon.com/sp?_encoding=UTF8&asin=&isAmazonFulfilled=&isCBA=&marketplaceID=ATVPDKIKX0DER&orderID=&protocol=current&seller=A284PRV19Y1MTF&sshmPath=,IPC-STORE,Wilmington,DE,19801,"300 Delaware Avenue, Suite 210 - #249",Cyberstorm LLC,USA
A1LE9UIT2XL5IW,https://www.amazon.com/sp?_encoding=UTF8&asin=&isAmazonFulfilled=&isCBA=&marketplaceID=ATVPDKIKX0DER&orderID=&protocol=current&seller=A1LE9UIT2XL5IW&sshmPath=,IraWoods,Owensboro,KY,42303,2809 Veach Road,Ira Wood & Sons Inc.,USA
A2M6TE0A199TV4,https://www.amazon.com/sp?_encoding=UTF8&asin=&isAmazonFulfilled=&isCBA=&marketplaceID=ATVPDKIKX0DER&orderID=&protocol=current&seller=A2M6TE0A199TV4&sshmPath=,ivaluemart,SOUTH SALT LAKE,UT,84119,"647 W Billinis Rd, Unit 3",ivaluemart LLC,USA
ATMF2AFOMI2H2,https://www.amazon.com/sp?_encoding=UTF8&asin=&isAmazonFulfilled=&isCBA=&marketplaceID=ATVPDKIKX0DER&orderID=&protocol=current&seller=ATMF2AFOMI2H2&sshmPath=,J&D Int. USA,HARBOUR CITY,HK,"TST, KLN","ROOMS 06, 13A/F., SOUTH TOWER, WORLD FINANCE CENTRE, 17 CANTON ROAD",J&D INTERNATIONAL BUSINESS LIMITED,USA
A1QHHQRG425P5I,https://www.amazon.com/sp?_encoding=UTF8&asin=&isAmazonFulfilled=&isCBA=&marketplaceID=ATVPDKIKX0DER&orderID=&protocol=current&seller=A1QHHQRG425P5I&sshmPath=,JOES APPLIANCES,Brooklyn,NY,11209,7812 5TH AVE,JOES APPPLIANCES LLC,USA
A14RGF7JMHGJUF,https://www.amazon.com/sp?_encoding=UTF8&asin=&isAmazonFulfilled=&isCBA=&marketplaceID=ATVPDKIKX0DER&orderID=&protocol=current&seller=A14RGF7JMHGJUF&sshmPath=,KART IT,Dover,DE,19901,8 The Green,Whole9yards USA LLC,USA
A3AVM34G26KYUP,https://www.amazon.com/sp?_encoding=UTF8&asin=&isAmazonFulfilled=&isCBA=&marketplaceID=ATVPDKIKX0DER&orderID=&protocol=current&seller=A3AVM34G26KYUP&sshmPath=,"KaTom Restaurant Supply, Inc",Kodak,TN,37764,305 KaTom Drive,"KaTom Restaurant Supply, Inc.",USA
A37BGOO7HZA5ZJ,https://www.amazon.com/sp?_encoding=UTF8&asin=&isAmazonFulfilled=&isCBA=&marketplaceID=ATVPDKIKX0DER&orderID=&protocol=current&seller=A37BGOO7HZA5ZJ&sshmPath=,Kitchen Bath Inventory,Brooklyn,NY,11203-3411,BUILDING 769 UTICA AVE,Utica Avenue Plumbing Supply,USA
AOSGB5Q81DXI1,https://www.amazon.com/sp?_encoding=UTF8&asin=&isAmazonFulfilled=&isCBA=&marketplaceID=ATVPDKIKX0DER&orderID=&protocol=current&seller=AOSGB5Q81DXI1&sshmPath=,LexMod,HIGHTSTOWN,NJ,08520-9762,329 WYCKOFF MILLS RD,Sugar Stores inc,USA
A2DZ9FN77PLMXK,https://www.amazon.com/sp?_encoding=UTF8&asin=&isAmazonFulfilled=&isCBA=&marketplaceID=ATVPDKIKX0DER&orderID=&protocol=current&seller=A2DZ9FN77PLMXK&sshmPath=,LG Solutions,scunthorpe,GB,DN17 1RQ,17 Whitfield Road,Forever Sisters Ltd,USA
A3SPLR0MSOYZ8O,https://www.amazon.com/sp?_encoding=UTF8&asin=&isAmazonFulfilled=&isCBA=&marketplaceID=ATVPDKIKX0DER&orderID=&protocol=current&seller=A3SPLR0MSOYZ8O&sshmPath=,Lifestyle by Focus,Brooklyn,NY,11218,905 McDonald Ave,OCUS CAMERA LLC,USA
A3QJT11U8YVDGS,https://www.amazon.com/sp?_encoding=UTF8&asin=&isAmazonFulfilled=&isCBA=&marketplaceID=ATVPDKIKX0DER&orderID=&protocol=current&seller=A3QJT11U8YVDGS&sshmPath=,Lifestyle Products Central,Valley Stream,NY,11581,710 Mulberry Place,F1 Group,USA
A2H6DAKJXEJWL,https://www.amazon.com/sp?_encoding=UTF8&asin=&isAmazonFulfilled=&isCBA=&marketplaceID=ATVPDKIKX0DER&orderID=&protocol=current&seller=A2H6DAKJXEJWL&sshmPath=,Lorixon,Newtown,CT,06470,3 Simm Lane Unit 2B1,Lorixon,USA
A2SGLFO5P0CUEH,https://www.amazon.com/sp?_encoding=UTF8&asin=&isAmazonFulfilled=&isCBA=&marketplaceID=ATVPDKIKX0DER&orderID=&protocol=current&seller=A2SGLFO5P0CUEH&sshmPath=,Luxury 4 Less Appliances,FORT WORTH,TX,76116-7913,3941 PIEDMONT RD,Luxury 4 Less Appliances LLC,USA
ATHN9UXLIB422,https://www.amazon.com/sp?_encoding=UTF8&asin=&isAmazonFulfilled=&isCBA=&marketplaceID=ATVPDKIKX0DER&orderID=&protocol=current&seller=ATHN9UXLIB422&sshmPath=,Mark's Best MarkDowns,Brooklyn,ny,11236,9720 farragut RD,OD Products LLC,USA
AXTMIAQZ4MR9Q,https://www.amazon.com/sp?_encoding=UTF8&asin=&isAmazonFulfilled=&isCBA=&marketplaceID=ATVPDKIKX0DER&orderID=&protocol=current&seller=AXTMIAQZ4MR9Q&sshmPath=,MV Supplies Express,MIAMI,FL,33130,"28 W FLAGLER ST, STE 300B",M&V WHOLESALE,USA
A1UEW3GW612BDQ,https://www.amazon.com/sp?_encoding=UTF8&asin=&isAmazonFulfilled=&isCBA=&marketplaceID=ATVPDKIKX0DER&orderID=&protocol=current&seller=A1UEW3GW612BDQ&sshmPath=,MyOfficeInnovations,LaVergne,TN,37086,320 Tech Park Drive Suite 100,MyOfficeInnovations,USA
AKPLPNO1VCBSQ,https://www.amazon.com/sp?_encoding=UTF8&asin=&isAmazonFulfilled=&isCBA=&marketplaceID=ATVPDKIKX0DER&orderID=&protocol=current&seller=AKPLPNO1VCBSQ&sshmPath=,MyStore3,New York,NY,10001,Po Box 20445,jennifer zhang,USA
A328TPQVTPRFL7,https://www.amazon.com/sp?_encoding=UTF8&asin=&isAmazonFulfilled=&isCBA=&marketplaceID=ATVPDKIKX0DER&orderID=&protocol=current&seller=A328TPQVTPRFL7&sshmPath=,NCG Ltd,Nes Ziona,israel,7403129,4 Ha'avoda st.,Shlomy Nidam,Israel
AV6HJQJT3G2H0,https://www.amazon.com/sp?_encoding=UTF8&asin=&isAmazonFulfilled=&isCBA=&marketplaceID=ATVPDKIKX0DER&orderID=&protocol=current&seller=AV6HJQJT3G2H0&sshmPath=,"Next Level, LLC",PUNTA GORDA,FL,33982,16257 PALMETTO ST,"Next Level Works, LLC",USA
A1787XOD7Q2I4M,https://www.amazon.com/sp?_encoding=UTF8&asin=&isAmazonFulfilled=&isCBA=&marketplaceID=ATVPDKIKX0DER&orderID=&protocol=current&seller=A1787XOD7Q2I4M&sshmPath=,Northern Tool + Equipment,Burnsville,MN,55306,2800 Southcross Drive W,"Northern Tool & Equipment Company, Inc",USA
AM2OF7T61HZKA,https://www.amazon.com/sp?_encoding=UTF8&asin=&isAmazonFulfilled=&isCBA=&marketplaceID=ATVPDKIKX0DER&orderID=&protocol=current&seller=AM2OF7T61HZKA&sshmPath=,Oak Park Home & Hardware,DELRAY BEACH,FL,33483,1730 S FEDERAL HWY # 334,"Oak Park Home & Hardware, Inc.",USA
A3K90JHFOGRITA,https://www.amazon.com/sp?_encoding=UTF8&asin=&isAmazonFulfilled=&isCBA=&marketplaceID=ATVPDKIKX0DER&orderID=&protocol=current&seller=A3K90JHFOGRITA&sshmPath=,OJCommerce,Miramar,FL,33025,3076 N Commerce Pkwy,"OJ Commerce, LLC",USA
A3E5DIZS2QHAR9,https://www.amazon.com/sp?_encoding=UTF8&asin=&isAmazonFulfilled=&isCBA=&marketplaceID=ATVPDKIKX0DER&orderID=&protocol=current&seller=A3E5DIZS2QHAR9&sshmPath=,Olive Branch Enterprises,RIDGEWOOD,NY,11385,4702 Metropolitan Ave. Floor 2 Unit 2B,Olive Branch Enterprises Inc.,USA
A2C4EMWO80SHUW,https://www.amazon.com/sp?_encoding=UTF8&asin=&isAmazonFulfilled=&isCBA=&marketplaceID=ATVPDKIKX0DER&orderID=&protocol=current&seller=A2C4EMWO80SHUW&sshmPath=,Online Supply Center,Corona,CA,92878,11528 Norgate Circle,Richie Schimkus,USA
A11OO2OHZG4UKY,https://www.amazon.com/sp?_encoding=UTF8&asin=&isAmazonFulfilled=&isCBA=&marketplaceID=ATVPDKIKX0DER&orderID=&protocol=current&seller=A11OO2OHZG4UKY&sshmPath=,OVERSTOCK,Midvale,UT,84047,799 W Coliseum Way,"Overstock.com, Inc.",USA
A2G2HF6I5439JH,https://www.amazon.com/sp?_encoding=UTF8&asin=&isAmazonFulfilled=&isCBA=&marketplaceID=ATVPDKIKX0DER&orderID=&protocol=current&seller=A2G2HF6I5439JH&sshmPath=,Parts & Parts,WEST PALM BEACH,FL,33411,"7750 OKEECHOBEE BLVD, STE 4, PMB 11089",UNLIMITED APPLIANCE PARTS,USA
A1NJMH3N65GHG1,https://www.amazon.com/sp?_encoding=UTF8&asin=&isAmazonFulfilled=&isCBA=&marketplaceID=ATVPDKIKX0DER&orderID=&protocol=current&seller=A1NJMH3N65GHG1&sshmPath=,PETSHOMEONLINE,Brooklyn,NY,11230,1801 Avenue N APT 6B,789 Products LLC,USA
A1L9D0A8YQ4I2J,https://www.amazon.com/sp?_encoding=UTF8&asin=&isAmazonFulfilled=&isCBA=&marketplaceID=ATVPDKIKX0DER&orderID=&protocol=current&seller=A1L9D0A8YQ4I2J&sshmPath=,PORTABLE GUY,Brooklyn,NY,11204,5823 19TH AVE,Portable guy inc,USA
AOXSRG6WMYPTS,https://www.amazon.com/sp?_encoding=UTF8&asin=&isAmazonFulfilled=&isCBA=&marketplaceID=ATVPDKIKX0DER&orderID=&protocol=current&seller=AOXSRG6WMYPTS&sshmPath=,PoshHaus,Keene,NH,03431,310 Marlboro St,"RK Parisi Enterprises, Inc.",USA
A1GIKH3L785S8V,https://www.amazon.com/sp?_encoding=UTF8&asin=&isAmazonFulfilled=&isCBA=&marketplaceID=ATVPDKIKX0DER&orderID=&protocol=current&seller=A1GIKH3L785S8V&sshmPath=,Prime Marine,Jacksonville,FL,32221,7749 Normandy Blvd #121-340,Mark Shuman Inc,USA
A29CFOW4UM3L3L,https://www.amazon.com/sp?_encoding=UTF8&asin=&isAmazonFulfilled=&isCBA=&marketplaceID=ATVPDKIKX0DER&orderID=&protocol=current&seller=A29CFOW4UM3L3L&sshmPath=,Provantage LLC,North Canton,OH,44720,7576 Freedom Ave Nw,Provantage LLC,USA
AHSX82JR0BVV4,https://www.amazon.com/sp?_encoding=UTF8&asin=&isAmazonFulfilled=&isCBA=&marketplaceID=ATVPDKIKX0DER&orderID=&protocol=current&seller=AHSX82JR0BVV4&sshmPath=,ProYa,Memphia,TN,38117,85 N Whitestation road,ROBERT BROWNE LIMITED,USA
A1V0P8HZ4QWM9Y,https://www.amazon.com/sp?_encoding=UTF8&asin=&isAmazonFulfilled=&isCBA=&marketplaceID=ATVPDKIKX0DER&orderID=&protocol=current&seller=A1V0P8HZ4QWM9Y&sshmPath=,Q's Dealz,Grandville,MI,49418,2885 Sanford Ave SW # 36338,Cutty Sark Trading LLC,USA
A1H0VGONN4PLNY,https://www.amazon.com/sp?_encoding=UTF8&asin=&isAmazonFulfilled=&isCBA=&marketplaceID=ATVPDKIKX0DER&orderID=&protocol=current&seller=A1H0VGONN4PLNY&sshmPath=,Quick Supplies,Kennesaw,GA,30144,2130 Barrett Park Dr NW STE 103,qdos,USA
A1KWOXLE942NOE,https://www.amazon.com/sp?_encoding=UTF8&asin=&isAmazonFulfilled=&isCBA=&marketplaceID=ATVPDKIKX0DER&orderID=&protocol=current&seller=A1KWOXLE942NOE&sshmPath=,RA GROUP,CANTON,MI,48188,40500 VAN BORN ROAD,reclaimed assets group,USA
A10O4FC6U7ZJ9B,https://www.amazon.com/sp?_encoding=UTF8&asin=&isAmazonFulfilled=&isCBA=&marketplaceID=ATVPDKIKX0DER&orderID=&protocol=current&seller=A10O4FC6U7ZJ9B&sshmPath=,RC3434,Corona,CA,92881,1240 E ONTARIO AVE #102-225,RC3434 CORP.,USA
A1ESQUOUWQQQTK,https://www.amazon.com/sp?_encoding=UTF8&asin=&isAmazonFulfilled=&isCBA=&marketplaceID=ATVPDKIKX0DER&orderID=&protocol=current&seller=A1ESQUOUWQQQTK&sshmPath=,RCK Sales,Sterling Heights,MI,48314,44648 Mound Road 196,RCK Sales Corp,USA
AERFI8OQ96S4C,https://www.amazon.com/sp?_encoding=UTF8&asin=&isAmazonFulfilled=&isCBA=&marketplaceID=ATVPDKIKX0DER&orderID=&protocol=current&seller=AERFI8OQ96S4C&sshmPath=,"Right Stuff Products, LLC",OAKLAND,CA,94611,6114 La Salle Ave #460,Right Stuff Products LLC,USA
AB53TCIPS27Z3,https://www.amazon.com/sp?_encoding=UTF8&asin=&isAmazonFulfilled=&isCBA=&marketplaceID=ATVPDKIKX0DER&orderID=&protocol=current&seller=AB53TCIPS27Z3&sshmPath=,Ro Milner LLC,Union City,NJ,07087,500 Paterson Plank Road,RO MILNER LLC,USA
A15IBB94P69PD2,https://www.amazon.com/sp?_encoding=UTF8&asin=&isAmazonFulfilled=&isCBA=&marketplaceID=ATVPDKIKX0DER&orderID=&protocol=current&seller=A15IBB94P69PD2,Roman & Paulino Inc.,Mountain Dale,NY,12763,641 Braden Rd,Roman & Paulino Inc.,
A1EXUJXD1YQG71,https://www.amazon.com/sp?_encoding=UTF8&asin=&isAmazonFulfilled=&isCBA=&marketplaceID=ATVPDKIKX0DER&orderID=&protocol=current&seller=A1EXUJXD1YQG71&sshmPath=,Sapphire Premium,Brooklyn,NY,11210,3423 Ave k,Ultra Goods,USA
A2CTNIKMM0NP96,https://www.amazon.com/sp?_encoding=UTF8&asin=&isAmazonFulfilled=&isCBA=&marketplaceID=ATVPDKIKX0DER&orderID=&protocol=current&seller=A2CTNIKMM0NP96&sshmPath=,Savings for You,Brooklyn,NY,11214,1870 BATH AVE,1 Stop Electronics Center Inc.,USA
A266S625C41HL0,https://www.amazon.com/sp?_encoding=UTF8&asin=&isAmazonFulfilled=&isCBA=&marketplaceID=ATVPDKIKX0DER&orderID=&protocol=current&seller=A266S625C41HL0&sshmPath=,SGDI,Bee Cave,TX,78738,12600 Hill Country Blvd Ste R-275,SG Distribution Inc.,USA
A3R7FCM9NT5V2E,https://www.amazon.com/sp?_encoding=UTF8&asin=&isAmazonFulfilled=&isCBA=&marketplaceID=ATVPDKIKX0DER&orderID=&protocol=current&seller=A3R7FCM9NT5V2E&sshmPath=,ShartPro,MONROE,NY,10950,51 FOREST ROAD 316-281,E & J SHOP INC.,USA
AQNACJEM8PUJ1,https://www.amazon.com/sp?_encoding=UTF8&asin=&isAmazonFulfilled=&isCBA=&marketplaceID=ATVPDKIKX0DER&orderID=&protocol=current&seller=AQNACJEM8PUJ1&sshmPath=,Shoplet,New York,NY,10006,"39 Broadway, Suite 2040",Ellison Systems Inc,USA
A1XXXCTRRYLVNU,https://www.amazon.com/sp?_encoding=UTF8&asin=&isAmazonFulfilled=&isCBA=&marketplaceID=ATVPDKIKX0DER&orderID=&protocol=current&seller=A1XXXCTRRYLVNU&sshmPath=,Smith & Hanks,Grandville,MI,49418,2885 Sanford Ave SW #31892,Tye Brands Group,USA
A1P1ZMKUDR1WM,https://www.amazon.com/sp?_encoding=UTF8&asin=&isAmazonFulfilled=&isCBA=&marketplaceID=ATVPDKIKX0DER&orderID=&protocol=current&seller=A1P1ZMKUDR1WM&sshmPath=,SoHo Camera,Woodland Hills,CA,91364,5348 topanga canyon blvd,Refurb depot,USA
A1XBPHGHAXLHDG,https://www.amazon.com/sp?_encoding=UTF8&asin=&isAmazonFulfilled=&isCBA=&marketplaceID=ATVPDKIKX0DER&orderID=&protocol=current&seller=A1XBPHGHAXLHDG&sshmPath=,SpaceBound,Lagrange,OH,44050,280 Opportunity Way,"SpaceBound, Inc.",USA
A1DXN92KCKEQV4,https://www.amazon.com/sp?_encoding=UTF8&asin=&isAmazonFulfilled=&isCBA=&marketplaceID=ATVPDKIKX0DER&orderID=&protocol=current&seller=A1DXN92KCKEQV4&sshmPath=,Spreetail,Lincoln,NE,68508,2021 Transformation Drive Suite 2500,VM MP LLC,USA
A19SPK1U1LYAXN,https://www.amazon.com/sp?_encoding=UTF8&asin=&isAmazonFulfilled=&isCBA=&marketplaceID=ATVPDKIKX0DER&orderID=&protocol=current&seller=A19SPK1U1LYAXN&sshmPath=,StoreForParts,Riverside,CA,92501,305 W. La Cadena Drive,"Warehouse Depot, LLC",USA
A3SQ9YFE6CSCS0,https://www.amazon.com/sp?_encoding=UTF8&asin=&isAmazonFulfilled=&isCBA=&marketplaceID=ATVPDKIKX0DER&orderID=&protocol=current&seller=A3SQ9YFE6CSCS0&sshmPath=,stores123,New York,NY,10001,"244 Fifth Avenue, Suite 1420","123Stores, Inc.",USA
A2929R9BIUS587,https://www.amazon.com/sp?_encoding=UTF8&asin=&isAmazonFulfilled=&isCBA=&marketplaceID=ATVPDKIKX0DER&orderID=&protocol=current&seller=A2929R9BIUS587&sshmPath=,StudioLX,Long Grove,IL,60047,3722 Albert Ln,Studio LX,USA
A2RVNBS6214O46,https://www.amazon.com/sp?_encoding=UTF8&asin=&isAmazonFulfilled=&isCBA=&marketplaceID=ATVPDKIKX0DER&orderID=&protocol=current&seller=A2RVNBS6214O46&sshmPath=,Superior Home Supplies,Lakewood Ranch,FL,34202,13335 Purple Finch Circle,"Gem Overstock, LLC",USA
ADJ3LLQFDHE8C,https://www.amazon.com/sp?_encoding=UTF8&asin=&isAmazonFulfilled=&isCBA=&marketplaceID=ATVPDKIKX0DER&orderID=&protocol=current&seller=ADJ3LLQFDHE8C&sshmPath=,superior sales,Lakewood,NJ,08701,"150 Oberlin Ave North, suite 12",Woojers LLC,USA
A2FL3558SY1TOH,https://www.amazon.com/sp?_encoding=UTF8&asin=&isAmazonFulfilled=&isCBA=&marketplaceID=ATVPDKIKX0DER&orderID=&protocol=current&seller=A2FL3558SY1TOH&sshmPath=,Supply Nut Inc,Poquoson,VA,23662,372 Wythe Creek Rd Ste C,"Supply Nut, Inc.",USA
A2QO25D16BFPIM,https://www.amazon.com/sp?_encoding=UTF8&asin=&isAmazonFulfilled=&isCBA=&marketplaceID=ATVPDKIKX0DER&orderID=&protocol=current&seller=A2QO25D16BFPIM&sshmPath=,Sylvane,Roswell,GA,30076,"245 Hembree Park Drive, Suite 124","Sylvane, Inc",USA
A1N9Z6NDQFYH1M,https://www.amazon.com/sp?_encoding=UTF8&asin=&isAmazonFulfilled=&isCBA=&marketplaceID=ATVPDKIKX0DER&orderID=&protocol=current&seller=A1N9Z6NDQFYH1M&sshmPath=,Tanner Appliance,Atlanta,GA,30342,"5450 Glenridge Drive, Suite 207",Kli Tanur LLC,USA
A29PHU0KPCGV8S,https://www.amazon.com/sp?_encoding=UTF8&asin=&isAmazonFulfilled=&isCBA=&marketplaceID=ATVPDKIKX0DER&orderID=&protocol=current&seller=A29PHU0KPCGV8S&sshmPath=,The Factory Depot,Ontario,CA,91761,"2821 EAST PHILADELPHIA ST, UNIT A",Factory Depot Advantages Inc,USA
AEIUGGSPGCEDX,https://www.amazon.com/sp?_encoding=UTF8&asin=&isAmazonFulfilled=&isCBA=&marketplaceID=ATVPDKIKX0DER&orderID=&protocol=current&seller=AEIUGGSPGCEDX&sshmPath=,Time for Quality,Berlin,DE,10557,Melanchthonstr. 17,M.i.E.-Trade UG haftungsbeschraenkt & Co. KG,USA
AUWQ0VK92HMTG,https://www.amazon.com/sp?_encoding=UTF8&asin=&isAmazonFulfilled=&isCBA=&marketplaceID=ATVPDKIKX0DER&orderID=&protocol=current&seller=AUWQ0VK92HMTG&sshmPath=,Time Out Pro,Mt. Pleasant,NY,10532,7 Skyline Dr. Ste 350,Time Out Media,USA
A3HB15LYR0JNWU,https://www.amazon.com/sp?_encoding=UTF8&asin=&isAmazonFulfilled=&isCBA=&marketplaceID=ATVPDKIKX0DER&orderID=&protocol=current&seller=A3HB15LYR0JNWU&sshmPath=,Toast!,Henderson,NV,89015,732 s racetrack,Vinotemp,USA
A36BVX0OTGTG1O,https://www.amazon.com/sp?_encoding=UTF8&asin=&isAmazonFulfilled=&isCBA=&marketplaceID=ATVPDKIKX0DER&orderID=&protocol=current&seller=A36BVX0OTGTG1O&sshmPath=,Today'sBestDeals,SPRING VALLEY,NY,10977-1318,26 TAMMY RD,BitByBit Group LLC,USA
A2O7U8P8CQ1D2W,https://www.amazon.com/sp?_encoding=UTF8&asin=&isAmazonFulfilled=&isCBA=&marketplaceID=ATVPDKIKX0DER&orderID=&protocol=current&seller=A2O7U8P8CQ1D2W&sshmPath=,TowerHomeCenters,Brooklyn,NY,11203,931 utica ave,Home Center Express Inc,USA
AAZRLVTNON75Z,https://www.amazon.com/sp?_encoding=UTF8&asin=&isAmazonFulfilled=&isCBA=&marketplaceID=ATVPDKIKX0DER&orderID=&protocol=current&seller=AAZRLVTNON75Z&sshmPath=,Triplenet Pricing INC,Newark,DE,19702,86 Albe Drive Suite 1C,TRIPELENET PRICING INC,USA
A39YVQM780MFTD,https://www.amazon.com/sp?_encoding=UTF8&asin=&isAmazonFulfilled=&isCBA=&marketplaceID=ATVPDKIKX0DER&orderID=&protocol=current&seller=A39YVQM780MFTD&sshmPath=,TRUE INTEGRAL,BROOKLYN,NY,11229-1904,1312 KINGS HWY,TRUE INTEGRAL INC,USA
A2HPNENRBICPRJ,https://www.amazon.com/sp?_encoding=UTF8&asin=&isAmazonFulfilled=&isCBA=&marketplaceID=ATVPDKIKX0DER&orderID=&protocol=current&seller=A2HPNENRBICPRJ&sshmPath=,Uber Bazaar Inc,Germantown,MD,20876,12410 Milestone Center Drive Suite 600,Uber Bazaar Inc,USA
A1L4LS2KNDBWYV,https://www.amazon.com/sp?_encoding=UTF8&asin=&isAmazonFulfilled=&isCBA=&marketplaceID=ATVPDKIKX0DER&orderID=&protocol=current&seller=A1L4LS2KNDBWYV&sshmPath=,"UnbeatableSale, Inc",LAKEWOOD,NJ,08701,195 Lehigh Avenue - Ste 5,"Unbeatbalesale.com, Inc.",USA
A32GLESVVFTOOJ,https://www.amazon.com/sp?_encoding=UTF8&asin=&isAmazonFulfilled=&isCBA=&marketplaceID=ATVPDKIKX0DER&orderID=&protocol=current&seller=A32GLESVVFTOOJ&sshmPath=,VAROUJcom,North Hollywood,CA,91605,11800 Vose ST,Varouj Appliance Service Inc,USA
A37UNPIG672ZHD,https://www.amazon.com/sp?_encoding=UTF8&asin=&isAmazonFulfilled=&isCBA=&marketplaceID=ATVPDKIKX0DER&orderID=&protocol=current&seller=A37UNPIG672ZHD&sshmPath=,Veteran Supply Co.,Riverside,CA,92509,"7830 Limonite Ave, Ste 106","Western Wholesale, LLC",USA
A12FY9W4KW1W5X,https://www.amazon.com/sp?_encoding=UTF8&asin=&isAmazonFulfilled=&isCBA=&marketplaceID=ATVPDKIKX0DER&orderID=&protocol=current&seller=A12FY9W4KW1W5X&sshmPath=,VIAMIA STORE,MIAMI,MI,33185,15411 SW 26TH TER,Viamia LLC,USA
A2HIWVB3P59IHZ,https://www.amazon.com/sp?_encoding=UTF8&asin=&isAmazonFulfilled=&isCBA=&marketplaceID=ATVPDKIKX0DER&orderID=&protocol=current&seller=A2HIWVB3P59IHZ&sshmPath=,Wall Distributing,AUSTIN,TX,78731-4298,5900 BALCONES DR STE 100,Wall Distributing Corp,USA
A1ALB70A8YMUCH,https://www.amazon.com/sp?_encoding=UTF8&asin=&isAmazonFulfilled=&isCBA=&marketplaceID=ATVPDKIKX0DER&orderID=&protocol=current&seller=A1ALB70A8YMUCH&sshmPath=,WarmlyYours,LAKE ZURICH,IL,60047,590 TELSER RD STE B,WarmlyYours.com Inc,USA
A2HWEN46V1XNCH,https://www.amazon.com/sp?_encoding=UTF8&asin=&isAmazonFulfilled=&isCBA=&marketplaceID=ATVPDKIKX0DER&orderID=&protocol=current&seller=A2HWEN46V1XNCH,Watershed Appliance,Carrollton,TX,75006,2615 E Belt Line Road,"Milestone Distributors, Inc.",USA
A1X8HNMWBO548V,https://www.amazon.com/sp?_encoding=UTF8&asin=&isAmazonFulfilled=&isCBA=&marketplaceID=ATVPDKIKX0DER&orderID=&protocol=current&seller=A1X8HNMWBO548V&sshmPath=,WholesaleSellerPlus,Miami,FL,33130,"175 sw 7th street, suite 2201",VIRTUALNET DIGITAL MARKETING WHOLESALE LLC,USA
A2WY491F75W8SV,https://www.amazon.com/sp?_encoding=UTF8&asin=&isAmazonFulfilled=&isCBA=&marketplaceID=ATVPDKIKX0DER&orderID=&protocol=current&seller=A2WY491F75W8SV&sshmPath=,Wiizez,Aventura,FL,33160,"323 Sunny Isles Boulevard, Suite 708",Amerifi Funding LLC,USA
A1KWJVS57NX03I,https://www.amazon.com/sp?_encoding=UTF8&asin=&isAmazonFulfilled=&isCBA=&marketplaceID=ATVPDKIKX0DER&orderID=&protocol=current&seller=A1KWJVS57NX03I&sshmPath=,WOOT,Carrollton,TX,75007,4121 International Parkway Suite 200,Woot Inc,USA
AQABPH9JSVRQH,https://www.amazon.com/sp?_encoding=UTF8&asin=&isAmazonFulfilled=&isCBA=&marketplaceID=ATVPDKIKX0DER&orderID=&protocol=current&seller=AQABPH9JSVRQH&sshmPath=,ZoZulu,San Diego,CA,92121,6980 Corte Santa Fe,ZoZoZulu Inc,USA
A12CSCR1WLPSDY,https://www.amazon.com/sp?_encoding=UTF8&asin=&isAmazonFulfilled=&isCBA=&marketplaceID=ATVPDKIKX0DER&orderID=&protocol=current&seller=A12CSCR1WLPSDY,plumbingheatingdeals,Harrison,NJ,07029,1000 South 2nd Street,plumbingheatingdeals,USA
A12OIOZHEY1YEY,https://www.amazon.com/sp?_encoding=UTF8&asin=&isAmazonFulfilled=&isCBA=&marketplaceID=ATVPDKIKX0DER&orderID=&protocol=current&seller=A12OIOZHEY1YEY,XKH Products,CINCINNATI,OH,45239,5748 Juliemarie Ct,Amy Jo Bodenstein,USA
A13ACIRM091OJE,https://www.amazon.com/sp?_encoding=UTF8&asin=&isAmazonFulfilled=&isCBA=&marketplaceID=ATVPDKIKX0DER&orderID=&protocol=current&seller=A13ACIRM091OJE,Video & Audio Center - Same Day Shipping,SANTA MONICA,CA,90403,1426 WILSHIRE BLVD,"Mayer M and J, Inc",USA
A18I2CT4HR9PN1,https://www.amazon.com/sp?_encoding=UTF8&asin=&isAmazonFulfilled=&isCBA=&marketplaceID=ATVPDKIKX0DER&orderID=&protocol=current&seller=A18I2CT4HR9PN1,Unlimited Goods Online,Arcadia,CA,91007,6510 N Golden West Ave,Jonathan Lien,USA
A18X9TWX2KA4H,https://www.amazon.com/sp?_encoding=UTF8&asin=&isAmazonFulfilled=&isCBA=&marketplaceID=ATVPDKIKX0DER&orderID=&protocol=current&seller=A18X9TWX2KA4H,National Fulfillment,Sarasota,FL,34232,PO Box 51671,Gulf Coast Mercantile LLC,USA
A1A0163V84UKHW,https://www.amazon.com/sp?_encoding=UTF8&asin=&isAmazonFulfilled=&isCBA=&marketplaceID=ATVPDKIKX0DER&orderID=&protocol=current&seller=A1A0163V84UKHW,CANGURO,Hamburg,,,Bramfelder Str. 102a,TRD Trading GmbH,GERMANY
A1AM344VXS14P5,https://www.amazon.com/sp?_encoding=UTF8&asin=&isAmazonFulfilled=&isCBA=&marketplaceID=ATVPDKIKX0DER&orderID=&protocol=current&seller=A1AM344VXS14P5,Gear-4-You,Sheridan,WY,82801,30 N Gould St Ste R,Gear 4 You,USA
A1FI7LYIXMVDRK,https://www.amazon.com/sp?_encoding=UTF8&asin=&isAmazonFulfilled=&isCBA=&marketplaceID=ATVPDKIKX0DER&orderID=&protocol=current&seller=A1FI7LYIXMVDRK,Lowesdepot,Knoxville,TN,37909,7268 Ashburton Dr,Raad Almeferge,USA
A1JDGMJD2OGRY,https://www.amazon.com/sp?_encoding=UTF8&asin=&isAmazonFulfilled=&isCBA=&marketplaceID=ATVPDKIKX0DER&orderID=&protocol=current&seller=A1JDGMJD2OGRY,Overloaded Warehouse,Tucson,AZ,85718,6341 N Placita De Eduardo,Overloaded Warehouse,USA
A1K2YWZ25UMBAG,https://www.amazon.com/sp?_encoding=UTF8&asin=&isAmazonFulfilled=&isCBA=&marketplaceID=ATVPDKIKX0DER&orderID=&protocol=current&seller=A1K2YWZ25UMBAG,Xcess Limited,Wooster,OH,44691,789 Industrial Blvd,Xcess Limited,USA
A1MWI8TQUIX2GH,https://www.amazon.com/sp?_encoding=UTF8&asin=&isAmazonFulfilled=&isCBA=&marketplaceID=ATVPDKIKX0DER&orderID=&protocol=current&seller=A1MWI8TQUIX2GH,digital picks,Sun Valley,CA,91352-2517,8831 LANKERSHIM BLVD,digital picks llc,USA
A1MYOIS73CRSNF,https://www.amazon.com/sp?_encoding=UTF8&asin=&isAmazonFulfilled=&isCBA=&marketplaceID=ATVPDKIKX0DER&orderID=&protocol=current&seller=A1MYOIS73CRSNF&sshmPath=,Flow Home,Brooklyn,NY,11219,1561 5TH ST,Stimbuuy,USA
A1OY440G2IE71U,https://www.amazon.com/sp?_encoding=UTF8&asin=&isAmazonFulfilled=&isCBA=&marketplaceID=ATVPDKIKX0DER&orderID=&protocol=current&seller=A1OY440G2IE71U,Vacuums 360,SALT LAKE CITY,UT,84115-2319,85 W 2100 S,chris law inc,USA
A1PWDSAD5REYPQ,https://www.amazon.com/sp?_encoding=UTF8&asin=&isAmazonFulfilled=&isCBA=&marketplaceID=ATVPDKIKX0DER&orderID=&protocol=current&seller=A1PWDSAD5REYPQ,MIRAKIA SOLUTIONS PVT. LTD.,Mumbai,Maharashtra,400078,"A/104, RANDHIR VIHAR C.H.S. NO. 187,, BUILDING 2,
 LALASETH COMPOUND,, T.P. ROAD, BHANDUP WEST,",MIRAKIA SOLUTIONS PVT LTD,IN
A1QL8JQSTQM87Z,https://www.amazon.com/sp?_encoding=UTF8&asin=&isAmazonFulfilled=&isCBA=&marketplaceID=ATVPDKIKX0DER&orderID=&protocol=current&seller=A1QL8JQSTQM87Z,Sylvia Lashes / OKK EXPRESS INC,Arlington Height,IL,60004,3401 N Ridge Ave,Okk express inc,USA
A1UWLDVGZSXGKG,https://www.amazon.com/sp?_encoding=UTF8&asin=&isAmazonFulfilled=&isCBA=&marketplaceID=ATVPDKIKX0DER&orderID=&protocol=current&seller=A1UWLDVGZSXGKG,VerSure,MONROE,NY,10950-6148,22 LIZENSK BLVD UNIT 101,SILVER DEALS LLC,USA
A1V48SMAORTAU2,https://www.amazon.com/sp?_encoding=UTF8&asin=&isAmazonFulfilled=&isCBA=&marketplaceID=ATVPDKIKX0DER&orderID=&protocol=current&seller=A1V48SMAORTAU2,Part Supply House,Mount Vernon,WA,98273,"1500 E College Way
 Ste A # 727",Evan Graves,USA
A1W8MCNDZGVDP1,https://www.amazon.com/sp?_encoding=UTF8&asin=&isAmazonFulfilled=&isCBA=&marketplaceID=ATVPDKIKX0DER&orderID=&protocol=current&seller=A1W8MCNDZGVDP1,Amber World Wide,CYPRESS,TX,77433-8701,18611 FM 529 RD STE 100,Amber Sporting Goods Inc.,USA
A1ZS2KYJVBUUWX,https://www.amazon.com/sp?_encoding=UTF8&asin=&isAmazonFulfilled=&isCBA=&marketplaceID=ATVPDKIKX0DER&orderID=&protocol=current&seller=A1ZS2KYJVBUUWX,Water Filter Tree,NORTH MIAMI,FL,33181,14207 NE 18TH AVE,WATER FILTER TREE INC,USA
A21M8JQ0I9SF78,https://www.amazon.com/sp?_encoding=UTF8&asin=&isAmazonFulfilled=&isCBA=&marketplaceID=ATVPDKIKX0DER&orderID=&protocol=current&seller=A21M8JQ0I9SF78,Nygmat,BEAR,DE,19701,"6 Laurel Way Bear, DE",Nygmat LLC,USA
A228GNTXW0TH0L,https://www.amazon.com/sp?_encoding=UTF8&asin=&isAmazonFulfilled=&isCBA=&marketplaceID=ATVPDKIKX0DER&orderID=&protocol=current&seller=A228GNTXW0TH0L,Vanns - Same Day Shipping,Laredo,TX,78045,PO BOX 451130,"HK GLOBAL TRADING, LTD",USA
A23G4RQ4T5C0NM,https://www.amazon.com/sp?_encoding=UTF8&asin=&isAmazonFulfilled=&isCBA=&marketplaceID=ATVPDKIKX0DER&orderID=&protocol=current&seller=A23G4RQ4T5C0NM,Deals4RealZ,Greenwood,IN,46143,1251 Porchester Ln,Deals4Realz LLC,USA
A25CC681M3NZFB,https://www.amazon.com/sp?_encoding=UTF8&asin=&isAmazonFulfilled=&isCBA=&marketplaceID=ATVPDKIKX0DER&orderID=&protocol=current&seller=A25CC681M3NZFB,Malelo and Company,CHICAGO,IL,60608-6742,3336 S HALSTED ST,Malelo Inc,USA
A2CBJYLGOLE5Y2,https://www.amazon.com/sp?_encoding=UTF8&asin=&isAmazonFulfilled=&isCBA=&marketplaceID=ATVPDKIKX0DER&orderID=&protocol=current&seller=A2CBJYLGOLE5Y2,Shop Chimney,MONSEY,NY,10952-3366,25 ROBERT PITT DR SUITE 103A,Shop Chimney,USA
A2F8KAB7F15GZF,https://www.amazon.com/sp?_encoding=UTF8&asin=&isAmazonFulfilled=&isCBA=&marketplaceID=ATVPDKIKX0DER&orderID=&protocol=current&seller=A2F8KAB7F15GZF,Hartville Hardware,Hartville,OH,44632,13163 Market Ave N,"Hart Design, Inc.",USA
A2F8NG9LKAYME4,https://www.amazon.com/sp?_encoding=UTF8&asin=&isAmazonFulfilled=&isCBA=&marketplaceID=ATVPDKIKX0DER&orderID=&protocol=current&seller=A2F8NG9LKAYME4,BuyLG,Perth Amboy,NJ,8861,525 Johnstone St,S&E Supplies,USA
A2FMRRV5SY13CZ,https://www.amazon.com/sp?_encoding=UTF8&asin=&isAmazonFulfilled=&isCBA=&marketplaceID=ATVPDKIKX0DER&orderID=&protocol=current&seller=A2FMRRV5SY13CZ,Bathroom And More Inc.,Newark,NJ,7107,661 North Third Street,Bathroom and More Inc.,USA
A2GGM23U1J6BA5,https://www.amazon.com/sp?_encoding=UTF8&asin=&isAmazonFulfilled=&isCBA=&marketplaceID=ATVPDKIKX0DER&orderID=&protocol=current&seller=A2GGM23U1J6BA5,WOCproducts,Kansas City,MO,64121,PO BOX 219370,Westlake Hardware Inc.,USA
A2H3WTQEVH5WTD,https://www.amazon.com/sp?_encoding=UTF8&asin=&isAmazonFulfilled=&isCBA=&marketplaceID=ATVPDKIKX0DER&orderID=&protocol=current&seller=A2H3WTQEVH5WTD,SaveALittle,Dale,TX,78616,1781 County Line Rd,Camara M Vail,USA
A2JK8QRWGVJNFV,https://www.amazon.com/sp?_encoding=UTF8&asin=&isAmazonFulfilled=&isCBA=&marketplaceID=ATVPDKIKX0DER&orderID=&protocol=current&seller=A2JK8QRWGVJNFV,Homemakers Furniture - Des Moines,Urbandale,IA,50111,10215 Douglas Ave,Homemakers Furniture - Janet Cole,USA
A2JPIHKWYUJBJA,https://www.amazon.com/sp?_encoding=UTF8&asin=&isAmazonFulfilled=&isCBA=&marketplaceID=ATVPDKIKX0DER&orderID=&protocol=current&seller=A2JPIHKWYUJBJA,Outdoor Home,West Columbia,SC,29169,718 Meeting St,Outdoor Wood Inc,USA
A2OE9EUHZ880KX,https://www.amazon.com/sp?_encoding=UTF8&asin=&isAmazonFulfilled=&isCBA=&marketplaceID=ATVPDKIKX0DER&orderID=&protocol=current&seller=A2OE9EUHZ880KX,HKL Distributing,Hayward,CA,94545,21062 Forbes Ave,Pacific HKL Distributing,USA
A2SG3KCO6MGTE7,https://www.amazon.com/sp?_encoding=UTF8&asin=&isAmazonFulfilled=&isCBA=&marketplaceID=ATVPDKIKX0DER&orderID=&protocol=current&seller=A2SG3KCO6MGTE7,GRAB_A_DEAL,Lakewood,NJ,8701,"520 JAMES ST
 UNIT 2A-1",SMK GRABS INC,USA
A2ZANZX0RHL3OT,https://www.amazon.com/sp?_encoding=UTF8&asin=&isAmazonFulfilled=&isCBA=&marketplaceID=ATVPDKIKX0DER&orderID=&protocol=current&seller=A2ZANZX0RHL3OT,SupplyKick,Indianapolis,IN,46202,1117 E Market Street,SupplyKick LLC,USA
A3100733H83O1A,https://www.amazon.com/sp?_encoding=UTF8&asin=&isAmazonFulfilled=&isCBA=&marketplaceID=ATVPDKIKX0DER&orderID=&protocol=current&seller=A3100733H83O1A,German Sanitary&Tool Shop,Menden,NRW,58708,Fröndenbergerstrasse 285 a,International Warehouse GmbH CO.KG,DE
A31VCWBECUH3LP,https://www.amazon.com/sp?_encoding=UTF8&asin=&isAmazonFulfilled=&isCBA=&marketplaceID=ATVPDKIKX0DER&orderID=&protocol=current&seller=A31VCWBECUH3LP,EF Online,Missouri City,TX,77489,631 Buffalo Lakes Dr. #100,EF Online Corporation,USA
A365LI1WZ6D23T,https://www.amazon.com/sp?_encoding=UTF8&asin=&isAmazonFulfilled=&isCBA=&marketplaceID=ATVPDKIKX0DER&orderID=&protocol=current&seller=A365LI1WZ6D23T,American Furniture Direct,CYPRESS,TX,77433,20318 STONE FALLS CT,KC&Z Enterprises LLC,USA
A37CKETYGT1PQD,https://www.amazon.com/sp?_encoding=UTF8&asin=&isAmazonFulfilled=&isCBA=&marketplaceID=ATVPDKIKX0DER&orderID=&protocol=current&seller=A37CKETYGT1PQD,Lighting New York,Selinsgrove,PA,17870,78 Universal Rd.,Lighting By Jared Inc,USA
A392KKNP3SICX6,https://www.amazon.com/sp?_encoding=UTF8&asin=&isAmazonFulfilled=&isCBA=&marketplaceID=ATVPDKIKX0DER&orderID=&protocol=current&seller=A392KKNP3SICX6,Manhattan Lane,Pico Rivera,CA,90660,8600 Mercury Lane,Benzara Inc,USA
A3FJ2OXB5QJX1F,https://www.amazon.com/sp?_encoding=UTF8&asin=&isAmazonFulfilled=&isCBA=&marketplaceID=ATVPDKIKX0DER&orderID=&protocol=current&seller=A3FJ2OXB5QJX1F,New depot,Fort Lee,NJ,7024,1148 palisade ave,green optic llc,USA
A3G0NPR43AQZZY,https://www.amazon.com/sp?_encoding=UTF8&asin=&isAmazonFulfilled=&isCBA=&marketplaceID=ATVPDKIKX0DER&orderID=&protocol=current&seller=A3G0NPR43AQZZY,GreatFurnitureDeals,Riverton,UT,84065,PO Box 198,"Five Star Source, INC",USA
A3G3SO77TXT8EI,https://www.amazon.com/sp?_encoding=UTF8&asin=&isAmazonFulfilled=&isCBA=&marketplaceID=ATVPDKIKX0DER&orderID=&protocol=current&seller=A3G3SO77TXT8EI,MFS Inc.,ANAHEIM,CA,92806,3182 E LA PALMA AVENUE,MFS Sales,USA
A3GXF81LFFXBK3,https://www.amazon.com/sp?_encoding=UTF8&asin=&isAmazonFulfilled=&isCBA=&marketplaceID=ATVPDKIKX0DER&orderID=&protocol=current&seller=A3GXF81LFFXBK3,JCW Super Goods,PALM COAST,FL,32137-8358,4 CHARLES CT,Goo Global LLC,USA
A3HNGASOB6Z1CO,https://www.amazon.com/sp?_encoding=UTF8&asin=&isAmazonFulfilled=&isCBA=&marketplaceID=ATVPDKIKX0DER&orderID=&protocol=current&seller=A3HNGASOB6Z1CO,MusicMan1a2a3,Flint,MI,48504,2951 Stevenson Street,Rob Alent,USA
A3KW2XH95XXKEJ,https://www.amazon.com/sp?_encoding=UTF8&asin=&isAmazonFulfilled=&isCBA=&marketplaceID=ATVPDKIKX0DER&orderID=&protocol=current&seller=A3KW2XH95XXKEJ,Values Central $,Boca Raton,FL,33487,"1200 S Rogers Circle
 #9",Irvin Beck,USA
A3L3446TPK8MWG,https://www.amazon.com/sp?_encoding=UTF8&asin=&isAmazonFulfilled=&isCBA=&marketplaceID=ATVPDKIKX0DER&orderID=&protocol=current&seller=A3L3446TPK8MWG,Edwin's Goods LLC,Harbor City,CA,90710-5236,25519 BAYCREST CT,Edwin Giovanni Oliva,USA
A3LNSS9ECGWELR,https://www.amazon.com/sp?_encoding=UTF8&asin=&isAmazonFulfilled=&isCBA=&marketplaceID=ATVPDKIKX0DER&orderID=&protocol=current&seller=A3LNSS9ECGWELR,Satisfying Customers,Brooklyn,NY,11219,"4418 14th Ave
 Suite 208",RIGHTWAY DISTRIBUTION INC,USA
A3MFPOUSP04SM6,https://www.amazon.com/sp?_encoding=UTF8&asin=&isAmazonFulfilled=&isCBA=&marketplaceID=ATVPDKIKX0DER&orderID=&protocol=current&seller=A3MFPOUSP04SM6,Seanergy Group,Kfar Saba,Israel,4465138,Risenbach 7,Wave Worldwide Ltd.,IL
A3OIC2DXBFCE1I,https://www.amazon.com/sp?_encoding=UTF8&asin=&isAmazonFulfilled=&isCBA=&marketplaceID=ATVPDKIKX0DER&orderID=&protocol=current&seller=A3OIC2DXBFCE1I,Diddly Deals,Oklahoma City,OK,73113-0738,PO Box 14738,"Diddlydeals.com, LLC",USA
A3OMPYN5P8FLH,https://www.amazon.com/sp?_encoding=UTF8&asin=&isAmazonFulfilled=&isCBA=&marketplaceID=ATVPDKIKX0DER&orderID=&protocol=current&seller=A3OMPYN5P8FLH,AV Enthusiast,Fontana,CA,92336,6283 Elesa Way,Ryan T Romo,USA
A3PD2EPK9BOWDF,https://www.amazon.com/sp?_encoding=UTF8&asin=&isAmazonFulfilled=&isCBA=&marketplaceID=ATVPDKIKX0DER&orderID=&protocol=current&seller=A3PD2EPK9BOWDF,Loot Hive,Bloomington,MN,55420,8933 Lyndale Ave S,ZKarlo Inc.,USA
A3Q7GSPRWX7N5W,https://www.amazon.com/sp?_encoding=UTF8&asin=&isAmazonFulfilled=&isCBA=&marketplaceID=ATVPDKIKX0DER&orderID=&protocol=current&seller=A3Q7GSPRWX7N5W,plumbingwholesaler,Brooklyn,NY,11203,478 Albany Ave Ste 84,PHANY LLC,USA
A3RF3NNUAMN6UZ,https://www.amazon.com/sp?_encoding=UTF8&asin=&isAmazonFulfilled=&isCBA=&marketplaceID=ATVPDKIKX0DER&orderID=&protocol=current&seller=A3RF3NNUAMN6UZ,DCG Stores,Livermore,CA,94551,165 Pullman Street,"DANRICK COMMERCE GROUP, LLC",USA
A3SBDOAENTRT1F,https://www.amazon.com/sp?_encoding=UTF8&asin=&isAmazonFulfilled=&isCBA=&marketplaceID=ATVPDKIKX0DER&orderID=&protocol=current&seller=A3SBDOAENTRT1F,VirVentures,HOUSTON,TX,77090-4502,14932 KUYKENDAHL RD,Vir Ventures Inc.,USA
A3SEB5YGWMO93I,https://www.amazon.com/sp?_encoding=UTF8&asin=&isAmazonFulfilled=&isCBA=&marketplaceID=ATVPDKIKX0DER&orderID=&protocol=current&seller=A3SEB5YGWMO93I,Ready Craft,Santa Fe,NM,87505,2200 Old Pecos Trail,READY CRAFT LLC,USA
A4UA9L9SOHRPP,https://www.amazon.com/sp?_encoding=UTF8&asin=&isAmazonFulfilled=&isCBA=&marketplaceID=ATVPDKIKX0DER&orderID=&protocol=current&seller=A4UA9L9SOHRPP,Something4U2,FLORISSANT,MO,63034-3413,3982 AFFIRMED DR,Calvin Bernard Jackson,USA
AAKYQB1J7VIV5,https://www.amazon.com/sp?_encoding=UTF8&asin=&isAmazonFulfilled=&isCBA=&marketplaceID=ATVPDKIKX0DER&orderID=&protocol=current&seller=AAKYQB1J7VIV5,Executive Appliance,Long Branch,NJ,7740,1190 Lincoln Court,Executive Appliance Inc,USA
AE5A465UEKTDA,https://www.amazon.com/sp?_encoding=UTF8&asin=&isAmazonFulfilled=&isCBA=&marketplaceID=ATVPDKIKX0DER&orderID=&protocol=current&seller=AE5A465UEKTDA,The Kitchen Clique,Brooklyn,NY,11210,3009 Avenue L,The Kitchen Clique,USA
AEE0241LKBGQR,https://www.amazon.com/sp?_encoding=UTF8&asin=&isAmazonFulfilled=&isCBA=&marketplaceID=ATVPDKIKX0DER&orderID=&protocol=current&seller=AEE0241LKBGQR,KINGStuff,Roxburgh Park,Victoria,3064,22 Parker Court,2Way solutions,AU
AHAKCLE5IBPQ7,https://www.amazon.com/sp?_encoding=UTF8&asin=&isAmazonFulfilled=&isCBA=&marketplaceID=ATVPDKIKX0DER&orderID=&protocol=current&seller=AHAKCLE5IBPQ7,Renovation Warehouse,Smithfield,RI,29217,49 Cedar Swamp Rd Unit 3,Newport Stores,USA
AIA7PWASOCHF9,https://www.amazon.com/sp?_encoding=UTF8&asin=&isAmazonFulfilled=&isCBA=&marketplaceID=ATVPDKIKX0DER&orderID=&protocol=current&seller=AIA7PWASOCHF9,Palace Decors,BELLFLOWER,CA,90706-5805,16811 ARDMORE AVE,Palace Decorators,USA
AK948F21IFE7D,https://www.amazon.com/sp?_encoding=UTF8&asin=&isAmazonFulfilled=&isCBA=&marketplaceID=ATVPDKIKX0DER&orderID=&protocol=current&seller=AK948F21IFE7D,Tech Original inc,BROOKLYN,NY,11229-4114,2250 HOMECREST AVE REAR,Tech Original Trading,USA
AKDENCFW3A9SI,https://www.amazon.com/sp?_encoding=UTF8&asin=&isAmazonFulfilled=&isCBA=&marketplaceID=ATVPDKIKX0DER&orderID=&protocol=current&seller=AKDENCFW3A9SI,Home Essentials,West Palm Beach,FL,33411,7750 Okeechobee Blvd Ste 4 PMB 11089,Sports Fans Depot Inc,USA
ANRRIZ5VJS050,https://www.amazon.com/sp?_encoding=UTF8&asin=&isAmazonFulfilled=&isCBA=&marketplaceID=ATVPDKIKX0DER&orderID=&protocol=current&seller=ANRRIZ5VJS050,Spotix,North Liberty,IA,52317,2810 Stoner Court Suite 1,"Spotix, Inc.",USA
ANXQGX7SMQ9JJ,https://www.amazon.com/sp?_encoding=UTF8&asin=&isAmazonFulfilled=&isCBA=&marketplaceID=ATVPDKIKX0DER&orderID=&protocol=current&seller=ANXQGX7SMQ9JJ,serg1121,Greenville,DE,19807,PO BOX 3513,Sergey Sirotinin,USA
AP3VA1GJZM3EQ,https://www.amazon.com/sp?_encoding=UTF8&asin=&isAmazonFulfilled=&isCBA=&marketplaceID=ATVPDKIKX0DER&orderID=&protocol=current&seller=AP3VA1GJZM3EQ,Amazon Global Store UK,,Luxembourg,1855,38 avenue John F. Kennedy,Amazon Global Store EU S.a.r.l,LU
AS4APWT1QM4XN,https://www.amazon.com/sp?_encoding=UTF8&asin=&isAmazonFulfilled=&isCBA=&marketplaceID=ATVPDKIKX0DER&orderID=&protocol=current&seller=AS4APWT1QM4XN,Hus Trading Inc,la puente,CA,91744,18824 damasco st,Hus Trading Inc,USA
ATP564FVWZA4T,https://www.amazon.com/sp?_encoding=UTF8&asin=&isAmazonFulfilled=&isCBA=&marketplaceID=ATVPDKIKX0DER&orderID=&protocol=current&seller=ATP564FVWZA4T,GlobalFX,Lowell,IN,46356,795 W Oakley Ave,Suzie Anderson Housewares LLC,USA
AWU4W0EK5VTI0,https://www.amazon.com/sp?_encoding=UTF8&asin=&isAmazonFulfilled=&isCBA=&marketplaceID=ATVPDKIKX0DER&orderID=&protocol=current&seller=AWU4W0EK5VTI0,"TAAC ENTERPRISE, L.L.C.",Dallas,TX,75254-1410,5050 QUORUM DR,"TAAC ENTERPRISE, L.L.C.",USA
AYP7UKFMKI7WW,https://www.amazon.com/sp?_encoding=UTF8&asin=&isAmazonFulfilled=&isCBA=&marketplaceID=ATVPDKIKX0DER&orderID=&protocol=current&seller=AYP7UKFMKI7WW,UltimateSupply,SEATTLE,WA,98102-4089,2626 10TH AVE E,Gary Krauser,USA
A33IGMMV82EB38,https://www.amazon.com/sp?_encoding=UTF8&asin=&isAmazonFulfilled=&isCBA=&marketplaceID=ATVPDKIKX0DER&orderID=&protocol=current&seller=A33IGMMV82EB38,Superior Echelon,Bronx,NY,10463,2711 Henry Hudson Parkway,Superior Echelon LLC,USA
A3IZUNVKA7EN6C,https://www.amazon.com/sp?_encoding=UTF8&asin=&isAmazonFulfilled=&isCBA=&marketplaceID=ATVPDKIKX0DER&orderID=&protocol=current&seller=A3IZUNVKA7EN6C,Eklipse Co,New York,NY,,235 W 56TH ST APT 42D,Zephyr Tech Co LLC,USA
A83G3AX87QKJF,https://www.amazon.com/sp?_encoding=UTF8&asin=&isAmazonFulfilled=&isCBA=&marketplaceID=ATVPDKIKX0DER&orderID=&protocol=current&seller=A83G3AX87QKJF,vCloud Choice,Plano,TX,75024,6860 Dallas Parkway Suite 200,vCloud Choice Inc.,USA
A1PLB6X2ZM8F0U,https://www.amazon.com/sp?_encoding=UTF8&asin=&isAmazonFulfilled=&isCBA=&marketplaceID=ATVPDKIKX0DER&orderID=&protocol=current&seller=A1PLB6X2ZM8F0U,Ami Ventures,Houston,TX,77090,14932 KUYKENDAHL RD,Ami Ventures Inc,USA
A1PTZTHYRQJ1CT,https://www.amazon.com/sp?_encoding=UTF8&asin=&isAmazonFulfilled=&isCBA=&marketplaceID=ATVPDKIKX0DER&orderID=&protocol=current&seller=A1PTZTHYRQJ1CT,NYDIRECT,DEDFORD HTS,OH,44146,26201 RICHMOND RD,Edelman Plumbing Supply Inc.,USA
A2BL73CD0YVLVS,https://www.amazon.com/sp?_encoding=UTF8&asin=&isAmazonFulfilled=&isCBA=&marketplaceID=ATVPDKIKX0DER&orderID=&protocol=current&seller=A2BL73CD0YVLVS,1 Click Pickk LLC,Wilton Manors,Florida,33334,2725 NE 8th Ave,1 Click Pickk LLC,USA
AIUQ7U1KF92X3,https://www.amazon.com/sp?_encoding=UTF8&asin=&isAmazonFulfilled=&isCBA=&marketplaceID=ATVPDKIKX0DER&orderID=&protocol=current&seller=AIUQ7U1KF92X3,MRO NEXT DAY,Centerville,OH,45459,7540 McEwen Rd,"mronextday.com, LLC",USA
A30Y99I01TOXRG,https://www.amazon.com/sp?_encoding=UTF8&asin=&isAmazonFulfilled=&isCBA=&marketplaceID=ATVPDKIKX0DER&orderID=&protocol=current&seller=A30Y99I01TOXRG,Bargain Ben,Edison,NJ,08837,80 Campus Drive,JDSPORTSWM,USA
A1FLHBAJJCW004,https://www.amazon.com/sp?_encoding=UTF8&asin=&isAmazonFulfilled=&isCBA=&marketplaceID=ATVPDKIKX0DER&orderID=&protocol=current&seller=A1FLHBAJJCW004,angelstoy,Plano,TX,75093,3200 Parkwood Blvd,Jan Solcan,USA
A7LIP3U00OK4L,https://www.amazon.com/sp?_encoding=UTF8&asin=&isAmazonFulfilled=&isCBA=&marketplaceID=ATVPDKIKX0DER&orderID=&protocol=current&seller=A7LIP3U00OK4L,LamberShop,Amsterdam,,01091,Kraaipanstraat 8,Lambertus Monhemius,NETHERLANDS
A2FWBCS7OWXYAS,https://www.amazon.com/sp?_encoding=UTF8&asin=&isAmazonFulfilled=&isCBA=&marketplaceID=ATVPDKIKX0DER&orderID=&protocol=current&seller=A2FWBCS7OWXYAS,Glass City Sales,Swanton,OH,43558,12141 Frankfort Rd,Kenneth K. Slachta Sr.,USA
A1KEQMPW6UETEW,https://www.amazon.com/sp?_encoding=UTF8&asin=&isAmazonFulfilled=&isCBA=&marketplaceID=ATVPDKIKX0DER&orderID=&protocol=current&seller=A1KEQMPW6UETEW,Fitness Factory,Forest Park,IL,60130,54 Glen Cove Rd,Gold Coast Appliances Inc.,USA
A3TX4YUK2VIRSQ,https://www.amazon.com/sp?_encoding=UTF8&asin=&isAmazonFulfilled=&isCBA=&marketplaceID=ATVPDKIKX0DER&orderID=&protocol=current&seller=A3TX4YUK2VIRSQ,Gatzies,Melrose,MA,02176,142 Franklin St,Gatzies LLC,USA
A34TXT338WGH05,https://www.amazon.com/sp?_encoding=UTF8&asin=&isAmazonFulfilled=&isCBA=&marketplaceID=ATVPDKIKX0DER&orderID=&protocol=current&seller=A34TXT338WGH05,What'sUp?,Suwon,Gyeonggi,16712,"604, Jungbu-daero, Yeongtong-gu, Suwon-si, Gyeonggi-do",In The Beginning,USA
A2RFGL6628Q6B5,https://www.amazon.com/sp?_encoding=UTF8&asin=&isAmazonFulfilled=&isCBA=&marketplaceID=ATVPDKIKX0DER&orderID=&protocol=current&seller=A2RFGL6628Q6B5,The Dragon's Trove,Pittsboro,NC,27312,PO Box 542,Michael D Cox,USA
A1O8AE65PG31SQ,https://www.amazon.com/sp?_encoding=UTF8&asin=&isAmazonFulfilled=&isCBA=&marketplaceID=ATVPDKIKX0DER&orderID=&protocol=current&seller=A1O8AE65PG31SQ,BuyParts,Pinxton,Nottingham,NG16 6LH,Unit 2B 81-87 Wharf Rd,ELI Distribution Ltd,USA
AYM4RQ69P8TSL,https://www.amazon.com/sp?_encoding=UTF8&asin=&isAmazonFulfilled=&isCBA=&marketplaceID=ATVPDKIKX0DER&orderID=&protocol=current&seller=AYM4RQ69P8TSL,Costa Supply,Miami,florida,33130,suite 2201 175 sw 7th street,COSTA & CASTRO LLC,USA
A1IVTRUG8CLJ6E,https://www.amazon.com/sp?_encoding=UTF8&asin=&isAmazonFulfilled=&isCBA=&marketplaceID=ATVPDKIKX0DER&orderID=&protocol=current&seller=A1IVTRUG8CLJ6E,Big Frog Supply,Virginia Beach,VA,23455,4701 Shore Dr suite 103 #183,Big Frog Supply,USA
AH51I9ZDVOT7K,https://www.amazon.com/sp?_encoding=UTF8&asin=&isAmazonFulfilled=&isCBA=&marketplaceID=ATVPDKIKX0DER&orderID=&protocol=current&seller=AH51I9ZDVOT7K,Liquidation Depo,MIDDLETOWN,NY,10940,334 County Route 49 Unit 1/Front Left End Unit,Thriftys Store Melissa Perez Sole MBR,USA
A1DV3S48KHPZRN,https://www.amazon.com/sp?_encoding=UTF8&asin=&isAmazonFulfilled=&isCBA=&marketplaceID=ATVPDKIKX0DER&orderID=&protocol=current&seller=A1DV3S48KHPZRN,"Authentic Models Americas, Inc",Eugene,OR,97404,50 Irving Rd,Authentic Models Americas Inc.,USA
A1VHVLB7D601T3,https://www.amazon.com/sp?_encoding=UTF8&asin=&isAmazonFulfilled=&isCBA=&marketplaceID=ATVPDKIKX0DER&orderID=&protocol=current&seller=A1VHVLB7D601T3,AAA Retail Deals,Perris,California,92571-3778,3031 Saffron Ct,Laura Yvonne Llamas,USA
A2HK7C46RYPK0U,https://www.amazon.com/sp?_encoding=UTF8&asin=&isAmazonFulfilled=&isCBA=&marketplaceID=ATVPDKIKX0DER&orderID=&protocol=current&seller=A2HK7C46RYPK0U,avigailj,GLASTONBURY,CT,06033,39 CLINTON ST,Avigail Jesner,USA
AWSA4TZD0HGOK,https://www.amazon.com/sp?_encoding=UTF8&asin=&isAmazonFulfilled=&isCBA=&marketplaceID=ATVPDKIKX0DER&orderID=&protocol=current&seller=AWSA4TZD0HGOK,JT MONO ENTERPRISES llc,Chicago,IL,60656,4740 N Cumberland Ave #132,JT NOMO ENTERPRISES LLC,USA
A3JMLK1O2IQBN3,https://www.amazon.com/sp?_encoding=UTF8&asin=&isAmazonFulfilled=&isCBA=&marketplaceID=ATVPDKIKX0DER&orderID=&protocol=current&seller=A3JMLK1O2IQBN3,shay li,natanya,,4246381,hativat givati 17/7 street,Alona Golan,ISRAEL
AV0M9MINKS8UX,https://www.amazon.com/sp?_encoding=UTF8&asin=&isAmazonFulfilled=&isCBA=&marketplaceID=ATVPDKIKX0DER&orderID=&protocol=current&seller=AV0M9MINKS8UX,Appliance-Parts-Direct,South Gate,CA,90280,12020 Garfield Avenue,Alliance California Laundry Distribution LLC,USA
A26OPL0VPN0KME,https://www.amazon.com/sp?_encoding=UTF8&asin=&isAmazonFulfilled=&isCBA=&marketplaceID=ATVPDKIKX0DER&orderID=&protocol=current&seller=A26OPL0VPN0KME,F.L.A.B,haifa,israel,3491024,gruenbaum 42,Eitan,USA
A1A58OC9SFWAZ,https://www.amazon.com/sp?_encoding=UTF8&asin=&isAmazonFulfilled=&isCBA=&marketplaceID=ATVPDKIKX0DER&orderID=&protocol=current&seller=A1A58OC9SFWAZ,Poolzilla,Edison,NJ,08837,80 Campus Drive,JD Sports WM LLC,USA
A38UGSI67WVFDV,https://www.amazon.com/sp?_encoding=UTF8&asin=&isAmazonFulfilled=&isCBA=&marketplaceID=ATVPDKIKX0DER&orderID=&protocol=current&seller=A38UGSI67WVFDV,Digdutty,Orlando,Fl,32818,1148 Red Dandy Drive,Aaron Das,USA
A1IKFBH9KY66BP,https://www.amazon.com/sp?_encoding=UTF8&asin=&isAmazonFulfilled=&isCBA=&marketplaceID=ATVPDKIKX0DER&orderID=&protocol=current&seller=A1IKFBH9KY66BP,Lifestylegrills,Loma Linda,California,92354,25745 Barton Rd.,Lifestyle Grills LLC,USA
AKGY5FSBYY6I5,https://www.amazon.com/sp?_encoding=UTF8&asin=&isAmazonFulfilled=&isCBA=&marketplaceID=ATVPDKIKX0DER&orderID=&protocol=current&seller=AKGY5FSBYY6I5,lald,UDAIPUR,Rajasthan,313011,siyaalpura lakhawali,Kishan Lal Dangi,USA
A1W5K6ECON6GOZ,https://www.amazon.com/sp?_encoding=UTF8&asin=&isAmazonFulfilled=&isCBA=&marketplaceID=ATVPDKIKX0DER&orderID=&protocol=current&seller=A1W5K6ECON6GOZ,US Electrons,petah tikva,merkaz,4954026,Hahistadrut 13,Hale Darshani -Electrons,USA
A2P0C1RS2ZK1WE,https://www.amazon.com/sp?_encoding=UTF8&asin=&isAmazonFulfilled=&isCBA=&marketplaceID=ATVPDKIKX0DER&orderID=&protocol=current&seller=A2P0C1RS2ZK1WE,AIAstore,STERLING HEIGHTS,MI,48310-1911,4810 BENJAMIN DR,Ahmed Aljuboori,USA
AC9MPYF9Z7ML4,https://www.amazon.com/sp?_encoding=UTF8&asin=&isAmazonFulfilled=&isCBA=&marketplaceID=ATVPDKIKX0DER&orderID=&protocol=current&seller=AC9MPYF9Z7ML4,Rapid Shop,Downers Grove,IL,60515,"2300 Wisconsin Ave, Unit 301 #137",Samuel Mcdonald,USA
A1S3P50UAKM69H,https://www.amazon.com/sp?_encoding=UTF8&asin=&isAmazonFulfilled=&isCBA=&marketplaceID=ATVPDKIKX0DER&orderID=&protocol=current&seller=A1S3P50UAKM69H,Burnt End Paper,Hastings,MI,49058,1035 E State St,Burnt End Paper LLC,USA
A2FTLZWOUR6TVE,https://www.amazon.com/sp?_encoding=UTF8&asin=&isAmazonFulfilled=&isCBA=&marketplaceID=ATVPDKIKX0DER&orderID=&protocol=current&seller=A2FTLZWOUR6TVE,great_deals2005,Lancaster,Pa,17601,141 Sunrise Ave,kyle maloney,USA
AHVG3DXHCS1QN,https://www.amazon.com/sp?_encoding=UTF8&asin=&isAmazonFulfilled=&isCBA=&marketplaceID=ATVPDKIKX0DER&orderID=&protocol=current&seller=AHVG3DXHCS1QN,eOutfitters,Jacksonville,Fl,32225,12740 ATLANTIC BLVD,Hour Garage LLC,USA
A3CXDCTU9MF8N,https://www.amazon.com/sp?_encoding=UTF8&asin=&isAmazonFulfilled=&isCBA=&marketplaceID=ATVPDKIKX0DER&orderID=&protocol=current&seller=A3CXDCTU9MF8N,MtConnects,Brooklyn,NY,11235,104 W End Ave #3a,AYMA Distribution Inc,USA
A3KVYDMO50IHL9,https://www.amazon.com/sp?_encoding=UTF8&asin=&isAmazonFulfilled=&isCBA=&marketplaceID=ATVPDKIKX0DER&orderID=&protocol=current&seller=A3KVYDMO50IHL9,Harwell's Green Thumb,Montgumery,AL,36116,4211 Troy HWY,Harwell's Green Thumb Nursery Inc,USA
A16TLDXIT2T97H,https://www.amazon.com/sp?_encoding=UTF8&asin=&isAmazonFulfilled=&isCBA=&marketplaceID=ATVPDKIKX0DER&orderID=&protocol=current&seller=A16TLDXIT2T97H,OmniHop,Valhalla,NY,10595,200 Summit Lake Dr,Ecommerce Grop Inc.,USA
A12ZT4ZURPEEJ7,https://www.amazon.com/sp?_encoding=UTF8&asin=&isAmazonFulfilled=&isCBA=&marketplaceID=ATVPDKIKX0DER&orderID=&protocol=current&seller=A12ZT4ZURPEEJ7,Peter Pann,Watford,Hertfordshire,WD24 4JP,"Blueprint Park, Imperial Way Unit 3",Ved Healthcare Limited,USA
A1HCMB1B6T3QXH,https://www.amazon.com/sp?_encoding=UTF8&asin=&isAmazonFulfilled=&isCBA=&marketplaceID=ATVPDKIKX0DER&orderID=&protocol=current&seller=A1HCMB1B6T3QXH,General Supply House,Long Beach,CA,90505,2644 E. 68th St,Plumbing Fire Protection Supply Inc.,USA
A2TQ84ZXM9986D,https://www.amazon.com/sp?_encoding=UTF8&asin=&isAmazonFulfilled=&isCBA=&marketplaceID=ATVPDKIKX0DER&orderID=&protocol=current&seller=A2TQ84ZXM9986D,AmericaMart,Elmhurst,IL,60126,205 E Butterfield Rd #443,AmericaMart,USA
A1XB2JNW0CAYOH,https://www.amazon.com/sp?_encoding=UTF8&asin=&isAmazonFulfilled=&isCBA=&marketplaceID=ATVPDKIKX0DER&orderID=&protocol=current&seller=A1XB2JNW0CAYOH,Phoenix Purchasing,Fortsalonga,NY,11768,19 ashley loop,Turnpike Total Appliance,USA
A11WK3RGSAB64K,https://www.amazon.com/sp?_encoding=UTF8&asin=&isAmazonFulfilled=&isCBA=&marketplaceID=ATVPDKIKX0DER&orderID=&protocol=current&seller=A11WK3RGSAB64K,Witty Design Inc,Yonkers,NY,10705,123 Valentine Ln,Witty Design Inc,USA
A1SF4ZPOGK8CUP,https://www.amazon.com/sp?_encoding=UTF8&asin=&isAmazonFulfilled=&isCBA=&marketplaceID=ATVPDKIKX0DER&orderID=&protocol=current&seller=A1SF4ZPOGK8CUP,Simply Savings USA,Brooklyn,NY,11223,1202 Avenue U #1080,Mizrahi Enterprise INC,USA
A38F1REGZFNN6L,https://www.amazon.com/sp?_encoding=UTF8&asin=&isAmazonFulfilled=&isCBA=&marketplaceID=ATVPDKIKX0DER&orderID=&protocol=current&seller=A38F1REGZFNN6L,CyberSavings,Greendale,NY,11548,54 Glen Cove Rd,Gold Coast Appliances Inc.,USA
A7LIP3U00OK4L,https://www.amazon.com/sp?_encoding=UTF8&asin=&isAmazonFulfilled=&isCBA=&marketplaceID=ATVPDKIKX0DER&orderID=&protocol=current&seller=A7LIP3U00OK4L,LamberShop,Amsterdam,,01091,Kraaipanstraat 8,Lambertus Monhemius,NETHERLANDS
A2G4GT7PG2IUFE,https://www.amazon.com/sp?_encoding=UTF8&asin=&isAmazonFulfilled=&isCBA=&marketplaceID=ATVPDKIKX0DER&orderID=&protocol=current&seller=A2G4GT7PG2IUFE,brandmoja,Shakopee,MN,55379-4447,2063 Alden Ave,Lifestyle Vivid L.L.C.,USA
A37Z7NHR3PTBT3,https://www.amazon.com/sp?_encoding=UTF8&asin=&isAmazonFulfilled=&isCBA=&marketplaceID=ATVPDKIKX0DER&orderID=&protocol=current&seller=A37Z7NHR3PTBT3,eFaucets,Lafayette Hill,PA,19444,2001 Joshua Road,"Jura Holdings, LLC",USA
A1BL0JYCCYDX2B,https://www.amazon.com/sp?_encoding=UTF8&asin=&isAmazonFulfilled=&isCBA=&marketplaceID=ATVPDKIKX0DER&orderID=&protocol=current&seller=A1BL0JYCCYDX2B,VT RESTAURANT EQUIPMENT,NASHVILLE,TN,37221,7701 POPLAR RIDGE DRIVE,VT EQUIPMENT INC,USA
A3NETQMYYC9SJC,https://www.amazon.com/sp?_encoding=UTF8&asin=&isAmazonFulfilled=&isCBA=&marketplaceID=ATVPDKIKX0DER&orderID=&protocol=current&seller=A3NETQMYYC9SJC,Norsemen Trading Company,Forest City,Iowa,50436,38387 150th Ave,Norsemen Trades LLC,USA
AP1ASFNRGFE1S,https://www.amazon.com/sp?_encoding=UTF8&asin=&isAmazonFulfilled=&isCBA=&marketplaceID=ATVPDKIKX0DER&orderID=&protocol=current&seller=AP1ASFNRGFE1S,comfyco,Somerset,NJ,08873,575 Easton Ave,Comfyco Enterprise Inc,USA
AZHZ102UTKBMA,https://www.amazon.com/sp?_encoding=UTF8&asin=&isAmazonFulfilled=&isCBA=&marketplaceID=ATVPDKIKX0DER&orderID=&protocol=current&seller=AZHZ102UTKBMA,DataAlchemy,Oakland,CA,946606,248 3rd Street,Data Alchemy Inc,USA
A3SEO5QN22RRZ4,https://www.amazon.com/sp?_encoding=UTF8&asin=&isAmazonFulfilled=&isCBA=&marketplaceID=ATVPDKIKX0DER&orderID=&protocol=current&seller=A3SEO5QN22RRZ4,Sit & Sleep,New York Mills,NY,13417-1319,4869 Commercial Dr,Mohawk Furniture - Paul Polk,USA
A3OTLBZ7HGMCVR,https://www.amazon.com/sp?_encoding=UTF8&asin=&isAmazonFulfilled=&isCBA=&marketplaceID=ATVPDKIKX0DER&orderID=&protocol=current&seller=A3OTLBZ7HGMCVR,Noble Appliance,Madison Heights,MI,48071,29245 Stephenson HWY,Noble Appliance Center LLC,USA
A26IUZUXHW3XDS,https://www.amazon.com/sp?_encoding=UTF8&asin=&isAmazonFulfilled=&isCBA=&marketplaceID=ATVPDKIKX0DER&orderID=&protocol=current&seller=A26IUZUXHW3XDS,DecorPlanet,Florence,AL,35630,217 N SEMINARY ST,DecorPlanet.com,USA
A3VKH1NY6QRMA1,https://www.amazon.com/sp?_encoding=UTF8&asin=&isAmazonFulfilled=&isCBA=&marketplaceID=ATVPDKIKX0DER&orderID=&protocol=current&seller=A3VKH1NY6QRMA1,iLoveStore,Virginia Beach,VA,23462,5312 Virginia Beach Blvd STE G,Yulia Dzhusupova,USA
A3EAKFLRL77MJE,https://www.amazon.com/sp?_encoding=UTF8&asin=&isAmazonFulfilled=&isCBA=&marketplaceID=ATVPDKIKX0DER&orderID=&protocol=current&seller=A3EAKFLRL77MJE,Valiknor Tech (SN Recorded),Nashua,NH,03063,14 Celina Ave,Vanco Tech INC,USA
AQ7FIN28K9HIX,https://www.amazon.com/sp?_encoding=UTF8&asin=&isAmazonFulfilled=&isCBA=&marketplaceID=ATVPDKIKX0DER&orderID=&protocol=current&seller=AQ7FIN28K9HIX,PEPE DEALS INC.,KEIZER,OR,97303,5305 River Road N STE B,PEPE DEALS,USA
A1D640G4J0SQSG,https://www.amazon.com/sp?_encoding=UTF8&asin=&isAmazonFulfilled=&isCBA=&marketplaceID=ATVPDKIKX0DER&orderID=&protocol=current&seller=A1D640G4J0SQSG,Elegant Bath And Hardware,High Point,NC,27260,2210 Geddie PL,Beeson Hardware Co,USA
AOHV2X4KXV8AG,https://www.amazon.com/sp?_encoding=UTF8&asin=&isAmazonFulfilled=&isCBA=&marketplaceID=ATVPDKIKX0DER&orderID=&protocol=current&seller=AOHV2X4KXV8AG,On Time Sunshine,DELRAY BEACH,FL,33445-4478,2715 SW 6TH ST,Daniel Connor Talty,USA
A2N4REE8VQNAQQ,https://www.amazon.com/sp?_encoding=UTF8&asin=&isAmazonFulfilled=&isCBA=&marketplaceID=ATVPDKIKX0DER&orderID=&protocol=current&seller=A2N4REE8VQNAQQ,Arx Medical,Duluth,GA,30097,6600 Sugarloaf Pkwy,Arx Medical,USA
A2BDGQZ8HGW7II,https://www.amazon.com/sp?_encoding=UTF8&asin=&isAmazonFulfilled=&isCBA=&marketplaceID=ATVPDKIKX0DER&orderID=&protocol=current&seller=A2BDGQZ8HGW7II,BESTSALESUA LLC,ELMHURST,NY,11373,41-33 75TH STREET APARTMENT 2F,BESTSALESUSA LLC,USA
A1W41K15QIQRWT,https://www.amazon.com/sp?_encoding=UTF8&asin=&isAmazonFulfilled=&isCBA=&marketplaceID=ATVPDKIKX0DER&orderID=&protocol=current&seller=A1W41K15QIQRWT,Appliances Parts Home,Mahwah,NJ,07430,10 industrial Ave Unit 4,Vectornate USA Inc,USA
A393ASL6SCOVXC,https://www.amazon.com/sp?_encoding=UTF8&asin=&isAmazonFulfilled=&isCBA=&marketplaceID=ATVPDKIKX0DER&orderID=&protocol=current&seller=A393ASL6SCOVXC,Aj's Appliance Parts,Fraser,MI,48026,34346 Utica Rd,AJ's Appliance Repair LLC,USA
A2TYW1J8EJA2WW,https://www.amazon.com/sp?_encoding=UTF8&asin=&isAmazonFulfilled=&isCBA=&marketplaceID=ATVPDKIKX0DER&orderID=&protocol=current&seller=A2TYW1J8EJA2WW,FRB Products,Petaluma,CA,94975,PO BOX 750261,Brandon FioRito,USA
AYIPG3NY7S3YR,https://www.amazon.com/sp?_encoding=UTF8&asin=&isAmazonFulfilled=&isCBA=&marketplaceID=ATVPDKIKX0DER&orderID=&protocol=current&seller=AYIPG3NY7S3YR,Mold & Allergy Relief,Yardville,NJ,08620,"46 Route, 156, Suite 8",MRI Services INC,USA
AGY0QKPYBNM2W,https://www.amazon.com/sp?_encoding=UTF8&asin=&isAmazonFulfilled=&isCBA=&marketplaceID=ATVPDKIKX0DER&orderID=&protocol=current&seller=AGY0QKPYBNM2W,BlueBath,Los Angeles,CA,90016-4122,4011 W Jefferson Blvd,Blue Bath,USA
A2UPQ1AKWLSBXH,https://www.amazon.com/sp?_encoding=UTF8&asin=&isAmazonFulfilled=&isCBA=&marketplaceID=ATVPDKIKX0DER&orderID=&protocol=current&seller=A2UPQ1AKWLSBXH,"Notable Stores, LLC",SHEBOYGAN,WI,53083-1976,5011 Wild Meadow Dr,Notable Stores,USA
A24NM2KKTC4VC3,https://www.amazon.com/sp?_encoding=UTF8&asin=&isAmazonFulfilled=&isCBA=&marketplaceID=ATVPDKIKX0DER&orderID=&protocol=current&seller=A24NM2KKTC4VC3,HomePlumbing,NY,NY,11520,65 South Columbus Ave,JOSHUA ROAD TECHNOLOGY LLC,USA
A30ZUX2884M4MP,https://www.amazon.com/sp?_encoding=UTF8&asin=&isAmazonFulfilled=&isCBA=&marketplaceID=ATVPDKIKX0DER&orderID=&protocol=current&seller=A30ZUX2884M4MP,The Rug Dept.,NY,NY,10018,108 W 39th St Suite 800,The Rug Department INC,USA
ADI8NCRBLA1BQ,https://www.amazon.com/sp?_encoding=UTF8&asin=&isAmazonFulfilled=&isCBA=&marketplaceID=ATVPDKIKX0DER&orderID=&protocol=current&seller=ADI8NCRBLA1BQ,Home Goods Depot,Santa Fe,New Mexico,87505,530B Harkle Rd STE 100,Evans Investments LLC,USA
AUEUXQQV6YS3R,https://www.amazon.com/sp?_encoding=UTF8&asin=&isAmazonFulfilled=&isCBA=&marketplaceID=ATVPDKIKX0DER&orderID=&protocol=current&seller=AUEUXQQV6YS3R,CPO Outlets,Pasadena,CA,91101,251 South Lake Ave Suite 400,"CPO Commerce, LLC",USA
A2TVT8QT6F9VCI,https://www.amazon.com/sp?_encoding=UTF8&asin=&isAmazonFulfilled=&isCBA=&marketplaceID=ATVPDKIKX0DER&orderID=&protocol=current&seller=A2TVT8QT6F9VCI,Furniture Express.,Tampa,Florida,33604,6421 N. Flordia Ave,Furniture Express INC,USA
AKGKDHIG14442,https://www.amazon.com/sp?_encoding=UTF8&asin=&isAmazonFulfilled=&isCBA=&marketplaceID=ATVPDKIKX0DER&orderID=&protocol=current&seller=AKGKDHIG14442,YouRemodel,Foley,AL,36535,8471 Forest Drive,Gregory J Migas,USA
A2J1ICAS7Y5E35,https://www.amazon.com/sp?_encoding=UTF8&asin=&isAmazonFulfilled=&isCBA=&marketplaceID=ATVPDKIKX0DER&orderID=&protocol=current&seller=A2J1ICAS7Y5E35,Need Direct,Vestavia Hills,AL,35242,1400 Urban Center Drive,Need Direct LLC,USA
A1X4H9AE1N2U7R,https://www.amazon.com/sp?_encoding=UTF8&asin=&isAmazonFulfilled=&isCBA=&marketplaceID=ATVPDKIKX0DER&orderID=&protocol=current&seller=A1X4H9AE1N2U7R,BYE-THE-SEA,RISHON LE ZION,ISRAEL,,46 Katzanelson st,By The Sea,USA
A2BKEAH3Z41CH2,https://www.amazon.com/sp?_encoding=UTF8&asin=&isAmazonFulfilled=&isCBA=&marketplaceID=ATVPDKIKX0DER&orderID=&protocol=current&seller=A2BKEAH3Z41CH2,click2go,La Puente,CA,91746,820 Meeker Ave,CLICK2GO INC,USA
A1YCDQJPFNZRAY,https://www.amazon.com/sp?_encoding=UTF8&asin=&isAmazonFulfilled=&isCBA=&marketplaceID=ATVPDKIKX0DER&orderID=&protocol=current&seller=A1YCDQJPFNZRAY,GuideCraft,Winthrop,MN,55396,55508 Highway 19,"Guidecraft, Inc.",USA
A334SLXUWNHM0D,https://www.amazon.com/sp?_encoding=UTF8&asin=&isAmazonFulfilled=&isCBA=&marketplaceID=ATVPDKIKX0DER&orderID=&protocol=current&seller=A334SLXUWNHM0D,Jrsourcing,Edison,NJ,08817,518 Old Post Rd Ste 7,Outlook International LLC,USA
A19F6PAPNJBCO3,https://www.amazon.com/sp?_encoding=UTF8&asin=&isAmazonFulfilled=&isCBA=&marketplaceID=ATVPDKIKX0DER&orderID=&protocol=current&seller=A19F6PAPNJBCO3,Kaizen8,Closter,NJ,07624,50 Railroad Avenue Unit B,50 Railroad Avenue,USA
A11DS1W51N3RFE,https://www.amazon.com/sp?_encoding=UTF8&asin=&isAmazonFulfilled=&isCBA=&marketplaceID=ATVPDKIKX0DER&orderID=&protocol=current&seller=A11DS1W51N3RFE,Sayanna BLNR (Serial Number Recorded),lake zurich,IL,60047-6264,210 rosehall drive Unit 270,Sayanna LLC,USA
A4ZSBADJP7DJM,https://www.amazon.com/sp?_encoding=UTF8&asin=&isAmazonFulfilled=&isCBA=&marketplaceID=ATVPDKIKX0DER&orderID=&protocol=current&seller=A4ZSBADJP7DJM,Onkata,Ferndale,WA,98248,1380 Stonegate Way,Hardware Sales Inc.,USA
A1M0GZGHL8F7T8,https://www.amazon.com/sp?_encoding=UTF8&asin=&isAmazonFulfilled=&isCBA=&marketplaceID=ATVPDKIKX0DER&orderID=&protocol=current&seller=A1M0GZGHL8F7T8,Amazing Deals Online,edison,NJ,08837,86 mayfield ave,Outlook FBA Corp,USA
A29U3GCXX0MSSV,https://www.amazon.com/sp?_encoding=UTF8&asin=&isAmazonFulfilled=&isCBA=&marketplaceID=ATVPDKIKX0DER&orderID=&protocol=current&seller=A29U3GCXX0MSSV,Ebargainworld,Euless,TX,76039,201 Crepe Myrtle Dr,Bargain Deals,USA
A2FQL10UCAZUR8,https://www.amazon.com/sp?_encoding=UTF8&asin=&isAmazonFulfilled=&isCBA=&marketplaceID=ATVPDKIKX0DER&orderID=&protocol=current&seller=A2FQL10UCAZUR8,Beyond Your Home,Brooklyn,NY,11203,478 Albany Avenue,Stock Your Home LLC,USA
ABA521VDB5ZI,https://www.amazon.com/sp?_encoding=UTF8&asin=&isAmazonFulfilled=&isCBA=&marketplaceID=ATVPDKIKX0DER&orderID=&protocol=current&seller=ABA521VDB5ZI,Styles_of_lighting,Plainfield,IL,60586,16114 S. Route 59,"Light Source Lighting of Plainfield, Inc.",USA
AD21V1UPTSCVD,https://www.amazon.com/sp?_encoding=UTF8&asin=&isAmazonFulfilled=&isCBA=&marketplaceID=ATVPDKIKX0DER&orderID=&protocol=current&seller=AD21V1UPTSCVD,TradePort,Dover,New Hampshire,03820,1 Progress Drive,TradePortUSA LLC,USA
A3CTK1XK8B6ADY,https://www.amazon.com/sp?_encoding=UTF8&asin=&isAmazonFulfilled=&isCBA=&marketplaceID=ATVPDKIKX0DER&orderID=&protocol=current&seller=A3CTK1XK8B6ADY,Great Lakes Supply Co,NEW BALTIMORE,MI,48047,51510 Industrial Drive,RAYMAC HVAC Sales Company L.L.C.,USA
A1C6PEATBHFWYQ,https://www.amazon.com/sp?_encoding=UTF8&asin=&isAmazonFulfilled=&isCBA=&marketplaceID=ATVPDKIKX0DER&orderID=&protocol=current&seller=A1C6PEATBHFWYQ,HaveSomeFun!,San Jose,CA,95123,5982 Larkstone Loop,"Haltek America, Inc",USA
A37KGDHNTODBMW,https://www.amazon.com/sp?_encoding=UTF8&asin=&isAmazonFulfilled=&isCBA=&marketplaceID=ATVPDKIKX0DER&orderID=&protocol=current&seller=A37KGDHNTODBMW,KilicStore,besiktas,,34337,etiler mah ergin sk. garanti apt. sitesi d blok no 35 iç kap,MURAT KILIC,TURKEY
AIJZVDXRC2DCJ,https://www.amazon.com/sp?_encoding=UTF8&asin=&isAmazonFulfilled=&isCBA=&marketplaceID=ATVPDKIKX0DER&orderID=&protocol=current&seller=AIJZVDXRC2DCJ,Water Filters For Home,Hot Springs,AR,71913,1819 Albert Pike STE J,AWP GROUP INC,USA
AHG3FGCS9S2S6,https://www.amazon.com/sp?_encoding=UTF8&asin=&isAmazonFulfilled=&isCBA=&marketplaceID=ATVPDKIKX0DER&orderID=&protocol=current&seller=AHG3FGCS9S2S6,Detroit Treasure Hunter,Harrison twp.,MI,48045,25920 campau ln.,John-Paul Cocuzza,USA
A1LQ759O23Q0NG,https://www.amazon.com/sp?_encoding=UTF8&asin=&isAmazonFulfilled=&isCBA=&marketplaceID=ATVPDKIKX0DER&orderID=&protocol=current&seller=A1LQ759O23Q0NG,Trademark Retail,LAKE HAVASU CITY,AZ,86404,5601 HIGHWAY 95 N STE D-416,T &amp; T Enterprises LLC,USA
A20UTTG8K1FCHY,https://www.amazon.com/sp?_encoding=UTF8&asin=&isAmazonFulfilled=&isCBA=&marketplaceID=ATVPDKIKX0DER&orderID=&protocol=current&seller=A20UTTG8K1FCHY,MN Warehouse Deals,Sauk Rapids,MN,56379,24 7th Street North,Tech X Direct LLC,USA
AK3PDFUAKQTEL,https://www.amazon.com/sp?_encoding=UTF8&asin=&isAmazonFulfilled=&isCBA=&marketplaceID=ATVPDKIKX0DER&orderID=&protocol=current&seller=AK3PDFUAKQTEL,Lucky 21,Roselle,NJ,07203,283 Cox St,Lucky 21 Partners LLC,USA
A2RFWVQCPQZM4D,https://www.amazon.com/sp?_encoding=UTF8&asin=&isAmazonFulfilled=&isCBA=&marketplaceID=ATVPDKIKX0DER&orderID=&protocol=current&seller=A2RFWVQCPQZM4D,Great Deals Today,LAKEWOOD,NJ,08701-2330,14 KINGS CT,yaakov shifrin,USA